{
"type": "FeatureCollection",
"name": "airport_boundary",
"crs": { "type": "name", "properties": { "name": "urn:ogc:def:crs:OGC:1.3:CRS84" } },
"features": [
{ "type": "Feature", "properties": { "name": "Sân bay quốc tế Long Thành", "aeroway": "aerodrome" }, "geometry": { "type": "MultiPolygon", "coordinates": [ [ [ [ 107.0206747, 10.7387088 ], [ 107.0058396, 10.7579755 ], [ 107.0037796, 10.760647 ], [ 107.0000221, 10.7655302 ], [ 107.0098628, 10.7724916 ], [ 107.0117154, 10.7738199 ], [ 107.0316868, 10.7881602 ], [ 107.0488599, 10.8004907 ], [ 107.057488100000015, 10.8066856 ], [ 107.073944, 10.8184914 ], [ 107.0811055, 10.8089679 ], [ 107.0857225, 10.8029021 ], [ 107.0864315, 10.8019643 ], [ 107.1012667, 10.7823348 ], [ 107.0858356, 10.7714146 ], [ 107.0646493, 10.7565221 ], [ 107.0431452, 10.7413464 ], [ 107.0289623, 10.7312581 ], [ 107.027334900000014, 10.730085 ], [ 107.0206747, 10.7387088 ] ], [ [ 107.067647, 10.7903199 ], [ 107.0508993, 10.7781681 ], [ 107.046613100000016, 10.783891 ], [ 107.0491612, 10.7857564 ], [ 107.0489037, 10.7861042 ], [ 107.0587742, 10.7933025 ], [ 107.0624757, 10.7951942 ], [ 107.0634198, 10.7958582 ], [ 107.067647, 10.7903199 ] ] ] ] } }
]
}
