{
"type": "FeatureCollection",
"name": "osm_major_raw",
"crs": { "type": "name", "properties": { "name": "urn:ogc:def:crs:OGC:1.3:CRS84" } },
"features": [
{ "type": "Feature", "properties": { "osm_id": "61397125", "name": "Đường tỉnh 769", "highway": "primary", "waterway": null, "aerialway": null, "barrier": null, "man_made": null, "railway": null, "z_order": 7, "other_tags": "\"lanes\"=>\"4\",\"maxspeed\"=>\"70\",\"ref\"=>\"ĐT.769\",\"surface\"=>\"asphalt\"" }, "geometry": { "type": "LineString", "coordinates": [ [ 106.9915573, 10.7958298 ], [ 106.9998481, 10.7959563 ], [ 106.9999892, 10.7959585 ], [ 107.0043988, 10.7960258 ], [ 107.0045333, 10.7960208 ], [ 107.0046656, 10.7960115 ], [ 107.00481, 10.7959911 ], [ 107.0059589, 10.7957492 ], [ 107.0084396, 10.7952268 ], [ 107.0096461, 10.7949623 ] ] } },
{ "type": "Feature", "properties": { "osm_id": "61397127", "name": "Đường tỉnh 769", "highway": "primary", "waterway": null, "aerialway": null, "barrier": null, "man_made": null, "railway": null, "z_order": 27, "other_tags": "\"bridge\"=>\"yes\",\"layer\"=>\"1\"" }, "geometry": { "type": "LineString", "coordinates": [ [ 107.0132016, 10.7934567 ], [ 107.0134089, 10.7933513 ] ] } },
{ "type": "Feature", "properties": { "osm_id": "61438703", "name": "Quốc lộ 51", "highway": "trunk", "waterway": null, "aerialway": null, "barrier": null, "man_made": null, "railway": null, "z_order": 8, "other_tags": "\"int_ref\"=>\"AH17\",\"lanes\"=>\"4\",\"lit\"=>\"yes\",\"maxspeed\"=>\"90\",\"maxspeed:motorcycle\"=>\"70\",\"name:en\"=>\"National Route 51\",\"name:vi\"=>\"Quốc lộ 51\",\"oneway\"=>\"yes\",\"ref\"=>\"QL.51\",\"sidewalk\"=>\"right\",\"sidewalk:right:surface\"=>\"concrete\",\"surface\"=>\"asphalt\",\"wikidata\"=>\"Q2380377\",\"wikipedia\"=>\"vi:Quốc lộ 51\"" }, "geometry": { "type": "LineString", "coordinates": [ [ 106.9940373, 10.727671 ], [ 106.9939713, 10.7277566 ], [ 106.9933973, 10.7284575 ] ] } },
{ "type": "Feature", "properties": { "osm_id": "61438707", "name": "Cầu Suối Cá", "highway": "trunk", "waterway": null, "aerialway": null, "barrier": null, "man_made": null, "railway": null, "z_order": 38, "other_tags": "\"bridge\"=>\"yes\",\"bridge:name\"=>\"Cầu Suối Cá\",\"int_ref\"=>\"AH17\",\"lanes\"=>\"4\",\"layer\"=>\"2\",\"lit\"=>\"yes\",\"maxspeed\"=>\"90\",\"maxspeed:motorcycle\"=>\"70\",\"name:en\"=>\"Suoi Ca Bridge\",\"name:vi\"=>\"Cầu Suối Cá\",\"oneway\"=>\"yes\",\"ref\"=>\"QL.51\",\"sidewalk\"=>\"right\",\"sidewalk:right:surface\"=>\"concrete\",\"surface\"=>\"asphalt\",\"wikidata\"=>\"Q2380377\",\"wikipedia\"=>\"vi:Quốc lộ 51\"" }, "geometry": { "type": "LineString", "coordinates": [ [ 106.9989786, 10.7205614 ], [ 106.9988582, 10.7208422 ] ] } },
{ "type": "Feature", "properties": { "osm_id": "219616785", "name": "Cầu Suối Cá", "highway": "trunk", "waterway": null, "aerialway": null, "barrier": null, "man_made": null, "railway": null, "z_order": 38, "other_tags": "\"bridge\"=>\"yes\",\"bridge:name\"=>\"Cầu Suối Cá\",\"int_ref\"=>\"AH17\",\"lanes\"=>\"4\",\"layer\"=>\"2\",\"lit\"=>\"yes\",\"maxspeed\"=>\"90\",\"maxspeed:motorcycle\"=>\"70\",\"name:en\"=>\"Suoi Ca Bridge\",\"name:vi\"=>\"Cầu Suối Cá\",\"oneway\"=>\"yes\",\"ref\"=>\"QL.51\",\"sidewalk\"=>\"right\",\"sidewalk:right:surface\"=>\"concrete\",\"surface\"=>\"asphalt\",\"wikidata\"=>\"Q2380377\",\"wikipedia\"=>\"vi:Quốc lộ 51\"" }, "geometry": { "type": "LineString", "coordinates": [ [ 106.9986755, 10.7207473 ], [ 106.9987932, 10.7204727 ] ] } },
{ "type": "Feature", "properties": { "osm_id": "219616797", "name": "Quốc lộ 51", "highway": "trunk", "waterway": null, "aerialway": null, "barrier": null, "man_made": null, "railway": null, "z_order": 8, "other_tags": "\"int_ref\"=>\"AH17\",\"lanes\"=>\"4\",\"lit\"=>\"yes\",\"maxspeed\"=>\"90\",\"maxspeed:motorcycle\"=>\"70\",\"name:en\"=>\"National Route 51\",\"name:vi\"=>\"Quốc lộ 51\",\"oneway\"=>\"yes\",\"ref\"=>\"QL.51\",\"sidewalk\"=>\"right\",\"sidewalk:right:surface\"=>\"concrete\",\"surface\"=>\"asphalt\",\"wikidata\"=>\"Q2380377\",\"wikipedia\"=>\"vi:Quốc lộ 51\"" }, "geometry": { "type": "LineString", "coordinates": [ [ 106.967555, 10.7518446 ], [ 106.9677095, 10.7517046 ], [ 106.9678015, 10.7516193 ], [ 106.9678914, 10.7515348 ], [ 106.968271, 10.7511886 ], [ 106.9685093, 10.7509711 ], [ 106.9690151, 10.7504796 ], [ 106.969401, 10.7500527 ], [ 106.9695062, 10.7499364 ], [ 106.9698124, 10.7495628 ], [ 106.9713276, 10.747714 ], [ 106.973929, 10.7445399 ], [ 106.9743344, 10.7440371 ], [ 106.9745882, 10.7437222 ], [ 106.9753358, 10.7427962 ], [ 106.9756808, 10.7423672 ] ] } },
{ "type": "Feature", "properties": { "osm_id": "395744528", "name": "Đường tỉnh 769", "highway": "primary", "waterway": null, "aerialway": null, "barrier": null, "man_made": null, "railway": null, "z_order": 7, "other_tags": "\"lanes\"=>\"2\",\"ref\"=>\"ĐT.769\",\"surface\"=>\"asphalt\"" }, "geometry": { "type": "LineString", "coordinates": [ [ 107.0134089, 10.7933513 ], [ 107.0134698, 10.7933211 ], [ 107.0136005, 10.7932641 ], [ 107.0137292, 10.7932353 ], [ 107.0139088, 10.7932362 ], [ 107.0148594, 10.793385 ], [ 107.0149886, 10.7934053 ], [ 107.0150402, 10.793413 ], [ 107.0157251, 10.7935149 ], [ 107.0159154, 10.7935337 ], [ 107.0162567, 10.7935321 ], [ 107.0164192, 10.7935001 ], [ 107.0166346, 10.7934251 ], [ 107.0176715, 10.7929628 ], [ 107.0177249, 10.7929373 ], [ 107.0179318, 10.792838 ], [ 107.018073, 10.7927703 ], [ 107.0189832, 10.7923338 ], [ 107.020075, 10.7918197 ], [ 107.0205393, 10.7916759 ], [ 107.02128, 10.7915474 ], [ 107.021791, 10.7914857 ], [ 107.022302, 10.7914288 ], [ 107.0227377, 10.7913803 ], [ 107.0234059, 10.7913059 ], [ 107.0238707, 10.7912541 ], [ 107.0239453, 10.7912458 ], [ 107.025147, 10.7911119 ], [ 107.0269042, 10.7909162 ], [ 107.0273261, 10.7908719 ], [ 107.0298375, 10.7906083 ], [ 107.0301009, 10.7905807 ], [ 107.0303294, 10.7905614 ], [ 107.0305933, 10.7905479 ], [ 107.0307826, 10.7905378 ], [ 107.0309011, 10.7905375 ], [ 107.0310282, 10.7905497 ], [ 107.0311605, 10.7905817 ], [ 107.0312773, 10.7906204 ], [ 107.0314014, 10.7906786 ], [ 107.0315088, 10.7907344 ], [ 107.0316067, 10.7908074 ], [ 107.0317177, 10.7908942 ], [ 107.0318054, 10.7909797 ], [ 107.0318836, 10.79108 ], [ 107.0319671, 10.791206 ], [ 107.0320253, 10.7913231 ], [ 107.032075, 10.7914458 ], [ 107.0321153, 10.7915675 ], [ 107.0321686, 10.7917644 ], [ 107.0322279, 10.7919897 ], [ 107.0327692, 10.7948292 ], [ 107.032801, 10.7949817 ], [ 107.0334676, 10.7982347 ], [ 107.0337555, 10.7995629 ], [ 107.0338054, 10.7998298 ], [ 107.0340518, 10.8006508 ], [ 107.0343203, 10.8010648 ], [ 107.0343802, 10.8011572 ], [ 107.03532, 10.8020336 ], [ 107.0363312, 10.8029765 ], [ 107.0366108, 10.8032372 ], [ 107.0373166, 10.8038635 ], [ 107.0375824, 10.8040994 ] ] } },
{ "type": "Feature", "properties": { "osm_id": "486389327", "name": "Đường tỉnh 769", "highway": "primary", "waterway": null, "aerialway": null, "barrier": null, "man_made": null, "railway": null, "z_order": 7, "other_tags": "\"lanes\"=>\"2\",\"ref\"=>\"ĐT.769\",\"surface\"=>\"asphalt\"" }, "geometry": { "type": "LineString", "coordinates": [ [ 107.0377121, 10.80425 ], [ 107.0380067, 10.804592 ], [ 107.0381709, 10.8049889 ], [ 107.0382803, 10.8057005 ], [ 107.0382875, 10.8061337 ], [ 107.0382922, 10.8061649 ], [ 107.0383419, 10.8066158 ], [ 107.0383231, 10.8069878 ], [ 107.0383522, 10.8071667 ], [ 107.0384782, 10.8078007 ], [ 107.0385745, 10.8083266 ], [ 107.0386104, 10.8085308 ], [ 107.0386362, 10.8086773 ], [ 107.0387282, 10.8092038 ], [ 107.0387971, 10.8095927 ], [ 107.0388103, 10.8096707 ], [ 107.0388291, 10.8097825 ], [ 107.0389125, 10.8102777 ], [ 107.0389832, 10.8106823 ], [ 107.0390673, 10.8111322 ], [ 107.0390868, 10.8112499 ], [ 107.0391016, 10.8113448 ], [ 107.039111, 10.8114467 ], [ 107.0391123, 10.8115167 ], [ 107.039111, 10.8116346 ], [ 107.0391083, 10.8117505 ], [ 107.0390399, 10.8127948 ], [ 107.0389968, 10.8134113 ], [ 107.0389876, 10.8135868 ], [ 107.0389929, 10.8137106 ], [ 107.0390063, 10.8138186 ], [ 107.0390359, 10.8139398 ], [ 107.0391103, 10.8141502 ], [ 107.0393485, 10.8146747 ], [ 107.0411522, 10.8185944 ], [ 107.0416197, 10.8199421 ], [ 107.041709, 10.8203668 ], [ 107.0419835, 10.8216722 ], [ 107.0423618, 10.8234321 ], [ 107.0423988, 10.8235561 ], [ 107.0424067, 10.8235827 ] ] } },
{ "type": "Feature", "properties": { "osm_id": "585972070", "name": "Đường tỉnh 769", "highway": "primary", "waterway": null, "aerialway": null, "barrier": null, "man_made": null, "railway": null, "z_order": 7, "other_tags": "\"lanes\"=>\"2\",\"maxspeed\"=>\"60\",\"ref\"=>\"ĐT.769\",\"surface\"=>\"asphalt\"" }, "geometry": { "type": "LineString", "coordinates": [ [ 107.0424067, 10.8235827 ], [ 107.0424262, 10.8238457 ], [ 107.0424663, 10.8252214 ], [ 107.0425683, 10.8331795 ], [ 107.0425915, 10.8348314 ], [ 107.042622, 10.8370099 ], [ 107.0426542, 10.8391385 ], [ 107.0426784, 10.8410007 ], [ 107.0426917, 10.8412275 ], [ 107.0427024, 10.8413672 ], [ 107.0427078, 10.8414462 ], [ 107.0427199, 10.8415015 ], [ 107.0427386, 10.8415661 ], [ 107.0427789, 10.8416596 ], [ 107.0428125, 10.8417181 ], [ 107.0428982, 10.8418334 ], [ 107.0429867, 10.8419494 ], [ 107.0431101, 10.8420916 ], [ 107.0433039, 10.8422941 ], [ 107.04447, 10.8434325 ], [ 107.0456377, 10.8446395 ], [ 107.0457897, 10.8448745 ], [ 107.0469859, 10.8473866 ], [ 107.0471978, 10.8477053 ], [ 107.0473028, 10.8478302 ], [ 107.0473839, 10.8479087 ], [ 107.0476381, 10.8481429 ], [ 107.047665, 10.8481666 ], [ 107.0487858, 10.8491701 ], [ 107.0497362, 10.8499933 ], [ 107.049763, 10.8500117 ], [ 107.050544, 10.8506158 ], [ 107.0506955, 10.8507498 ], [ 107.0507486, 10.8507913 ], [ 107.051256, 10.8511878 ], [ 107.0518681, 10.8516872 ], [ 107.0522778, 10.852099 ], [ 107.0522988, 10.852121 ], [ 107.0523741, 10.8521997 ], [ 107.0525455, 10.8523789 ] ] } },
{ "type": "Feature", "properties": { "osm_id": "585972127", "name": "Đường cao tốc Thành phố Hồ Chí Minh – Long Thành – Dầu Giây", "highway": "motorway", "waterway": null, "aerialway": null, "barrier": null, "man_made": null, "railway": null, "z_order": 9, "other_tags": "\"bicycle\"=>\"no\",\"foot\"=>\"no\",\"horse\"=>\"no\",\"int_ref\"=>\"AH1\",\"lanes\"=>\"2\",\"maxspeed\"=>\"120\",\"minspeed\"=>\"60\",\"motor_vehicle\"=>\"yes\",\"motorcycle\"=>\"no\",\"name:en\"=>\"Ho Chi Minh City - Long Thanh - Dau Giay Expressway\",\"name:ja\"=>\"ホーチミン - ダウザイ高速道路\",\"name:vi\"=>\"Đường cao tốc Thành phố Hồ Chí Minh – Long Thành – Dầu Giây\",\"name:zh\"=>\"胡志明市-隆城-油移高速公路\",\"oneway\"=>\"yes\",\"ref\"=>\"CT.01;CT.29\",\"surface\"=>\"asphalt\",\"toll\"=>\"yes\",\"wikidata\"=>\"Q16479982\",\"wikipedia\"=>\"vi:Đường cao tốc Thành phố Hồ Chí Minh – Long Thành – Dầu Giây\"" }, "geometry": { "type": "LineString", "coordinates": [ [ 106.9788437, 10.7683584 ], [ 106.9815473, 10.7689204 ], [ 106.9879792, 10.7702715 ], [ 106.9975173, 10.7722755 ], [ 106.9997285, 10.7727561 ], [ 107.001299, 10.7731719 ], [ 107.002348, 10.7734948 ], [ 107.003292, 10.7738005 ], [ 107.004138, 10.7741049 ], [ 107.0049541, 10.7744305 ], [ 107.0058907, 10.7748225 ], [ 107.0075703, 10.7756243 ], [ 107.009148, 10.7764366 ], [ 107.010858, 10.7774304 ], [ 107.0133943, 10.7789739 ], [ 107.0294621, 10.7888366 ], [ 107.0381739, 10.7941843 ], [ 107.0404183, 10.7955897 ], [ 107.0426436, 10.7970538 ], [ 107.0444321, 10.798306 ], [ 107.0461616, 10.7995733 ], [ 107.0481159, 10.8010793 ], [ 107.0500625, 10.8026624 ], [ 107.0523719, 10.8046833 ], [ 107.0552136, 10.8072994 ], [ 107.0580848, 10.8099751 ] ] } },
{ "type": "Feature", "properties": { "osm_id": "585972128", "name": "Đường cao tốc Thành phố Hồ Chí Minh – Long Thành – Dầu Giây", "highway": "motorway", "waterway": null, "aerialway": null, "barrier": null, "man_made": null, "railway": null, "z_order": 9, "other_tags": "\"bicycle\"=>\"no\",\"foot\"=>\"no\",\"horse\"=>\"no\",\"int_ref\"=>\"AH1\",\"lanes\"=>\"2\",\"maxspeed\"=>\"120\",\"minspeed\"=>\"60\",\"motor_vehicle\"=>\"yes\",\"motorcycle\"=>\"no\",\"name:en\"=>\"Ho Chi Minh City - Long Thanh - Dau Giay Expressway\",\"name:ja\"=>\"ホーチミン - ダウザイ高速道路\",\"name:vi\"=>\"Đường cao tốc Thành phố Hồ Chí Minh – Long Thành – Dầu Giây\",\"name:zh\"=>\"胡志明市-隆城-油移高速公路\",\"oneway\"=>\"yes\",\"ref\"=>\"CT.01;CT.29\",\"surface\"=>\"asphalt\",\"toll\"=>\"yes\",\"wikidata\"=>\"Q16479982\",\"wikipedia\"=>\"vi:Đường cao tốc Thành phố Hồ Chí Minh – Long Thành – Dầu Giây\"" }, "geometry": { "type": "LineString", "coordinates": [ [ 107.0579526, 10.8101007 ], [ 107.0550731, 10.8074159 ], [ 107.0522314, 10.8047999 ], [ 107.0499296, 10.8027873 ], [ 107.0479947, 10.8012152 ], [ 107.0460331, 10.7997026 ], [ 107.0443084, 10.7984397 ], [ 107.0425267, 10.7971933 ], [ 107.0403106, 10.7957355 ], [ 107.038057, 10.7943238 ], [ 107.0293452, 10.7889761 ], [ 107.0132774, 10.7791134 ], [ 107.0107535, 10.7775791 ], [ 107.0090501, 10.7765871 ], [ 107.0090458, 10.7765867 ], [ 107.0074911, 10.7757669 ], [ 107.0058328, 10.7749917 ], [ 107.0048999, 10.7746008 ], [ 107.0040797, 10.7742778 ], [ 107.0032046, 10.7739579 ], [ 107.0022826, 10.7736542 ], [ 107.0012525, 10.7733382 ], [ 106.9996707, 10.772923 ], [ 106.9973961, 10.7724263 ], [ 106.9914635, 10.7711843 ], [ 106.9879328, 10.7704451 ], [ 106.9877454, 10.7704058 ], [ 106.9814831, 10.7690953 ], [ 106.9787674, 10.7685231 ] ] } },
{ "type": "Feature", "properties": { "osm_id": "718135336", "name": "Hương lộ 10", "highway": "primary", "waterway": null, "aerialway": null, "barrier": null, "man_made": null, "railway": null, "z_order": 7, "other_tags": "\"lanes\"=>\"2\",\"oneway\"=>\"no\",\"ref\"=>\"ĐH.10\"" }, "geometry": { "type": "LineString", "coordinates": [ [ 107.109438, 10.8009025 ], [ 107.10941, 10.8010442 ], [ 107.1093392, 10.8013542 ], [ 107.1092593, 10.801661 ], [ 107.1091703, 10.8019655 ], [ 107.1090723, 10.8022672 ], [ 107.1089652, 10.8025659 ], [ 107.1088493, 10.8028614 ], [ 107.1086887, 10.8032309 ], [ 107.1085911, 10.8034418 ], [ 107.1084491, 10.8037261 ], [ 107.1082986, 10.8040063 ], [ 107.1081399, 10.8042819 ], [ 107.1079729, 10.8045529 ], [ 107.1077979, 10.8048189 ], [ 107.1076151, 10.8050797 ], [ 107.1074245, 10.8053352 ], [ 107.1072263, 10.805585 ], [ 107.1064746, 10.8064971 ], [ 107.1064289, 10.8065534 ], [ 107.1063686, 10.8066328 ], [ 107.1037066, 10.8099115 ], [ 107.1030633, 10.8107369 ], [ 107.1025157, 10.8114396 ], [ 107.1000497, 10.8144452 ], [ 107.0989966, 10.8157287 ], [ 107.0978234, 10.8170688 ], [ 107.0960998, 10.8190377 ], [ 107.09535, 10.8198991 ], [ 107.0928965, 10.8227177 ], [ 107.0911646, 10.8247072 ], [ 107.0906119, 10.8254564 ], [ 107.0872425, 10.8300241 ], [ 107.0865709, 10.8309347 ], [ 107.0865896, 10.8320364 ], [ 107.0866102, 10.833248 ], [ 107.0866075, 10.8345178 ], [ 107.0865893, 10.8346057 ], [ 107.0865419, 10.8346823 ], [ 107.0864711, 10.8347388 ], [ 107.086385, 10.8347686 ], [ 107.0862937, 10.8347681 ], [ 107.0854681, 10.8347581 ], [ 107.0854193, 10.8347575 ] ] } },
{ "type": "Feature", "properties": { "osm_id": "726935959", "name": "Đường cao tốc Thành phố Hồ Chí Minh – Long Thành – Dầu Giây", "highway": "motorway", "waterway": null, "aerialway": null, "barrier": null, "man_made": null, "railway": null, "z_order": 9, "other_tags": "\"bicycle\"=>\"no\",\"foot\"=>\"no\",\"horse\"=>\"no\",\"int_ref\"=>\"AH1\",\"lanes\"=>\"2\",\"maxspeed\"=>\"120\",\"minspeed\"=>\"60\",\"motor_vehicle\"=>\"yes\",\"motorcycle\"=>\"no\",\"name:en\"=>\"Ho Chi Minh City - Long Thanh - Dau Giay Expressway\",\"name:ja\"=>\"ホーチミン - ダウザイ高速道路\",\"name:vi\"=>\"Đường cao tốc Thành phố Hồ Chí Minh – Long Thành – Dầu Giây\",\"name:zh\"=>\"胡志明市-隆城-油移高速公路\",\"oneway\"=>\"yes\",\"ref\"=>\"CT.01;CT.29\",\"surface\"=>\"asphalt\",\"toll\"=>\"yes\",\"wikidata\"=>\"Q16479982\",\"wikipedia\"=>\"vi:Đường cao tốc Thành phố Hồ Chí Minh – Long Thành – Dầu Giây\"" }, "geometry": { "type": "LineString", "coordinates": [ [ 107.0703411, 10.8216814 ], [ 107.0584579, 10.8105803 ] ] } },
{ "type": "Feature", "properties": { "osm_id": "726935960", "name": "Đường cao tốc Thành phố Hồ Chí Minh – Long Thành – Dầu Giây", "highway": "motorway", "waterway": null, "aerialway": null, "barrier": null, "man_made": null, "railway": null, "z_order": 39, "other_tags": "\"bicycle\"=>\"no\",\"bridge\"=>\"yes\",\"foot\"=>\"no\",\"horse\"=>\"no\",\"int_ref\"=>\"AH1\",\"lanes\"=>\"2\",\"layer\"=>\"2\",\"maxspeed\"=>\"120\",\"minspeed\"=>\"60\",\"motor_vehicle\"=>\"yes\",\"motorcycle\"=>\"no\",\"name:en\"=>\"Ho Chi Minh City - Long Thanh - Dau Giay Expressway\",\"name:ja\"=>\"ホーチミン - ダウザイ高速道路\",\"name:vi\"=>\"Đường cao tốc Thành phố Hồ Chí Minh – Long Thành – Dầu Giây\",\"name:zh\"=>\"胡志明市-隆城-油移高速公路\",\"oneway\"=>\"yes\",\"ref\"=>\"CT.01;CT.29\",\"surface\"=>\"asphalt\",\"toll\"=>\"yes\",\"wikidata\"=>\"Q16479982\",\"wikipedia\"=>\"vi:Đường cao tốc Thành phố Hồ Chí Minh – Long Thành – Dầu Giây\"" }, "geometry": { "type": "LineString", "coordinates": [ [ 107.0707497, 10.8220629 ], [ 107.0703411, 10.8216814 ] ] } },
{ "type": "Feature", "properties": { "osm_id": "726935961", "name": "Đường cao tốc Thành phố Hồ Chí Minh – Long Thành – Dầu Giây", "highway": "motorway", "waterway": null, "aerialway": null, "barrier": null, "man_made": null, "railway": null, "z_order": 9, "other_tags": "\"bicycle\"=>\"no\",\"foot\"=>\"no\",\"horse\"=>\"no\",\"int_ref\"=>\"AH1\",\"lanes\"=>\"2\",\"maxspeed\"=>\"120\",\"minspeed\"=>\"60\",\"motor_vehicle\"=>\"yes\",\"motorcycle\"=>\"no\",\"name:en\"=>\"Ho Chi Minh City - Long Thanh - Dau Giay Expressway\",\"name:ja\"=>\"ホーチミン - ダウザイ高速道路\",\"name:vi\"=>\"Đường cao tốc Thành phố Hồ Chí Minh – Long Thành – Dầu Giây\",\"name:zh\"=>\"胡志明市-隆城-油移高速公路\",\"oneway\"=>\"yes\",\"ref\"=>\"CT.01;CT.29\",\"surface\"=>\"asphalt\",\"toll\"=>\"yes\",\"wikidata\"=>\"Q16479982\",\"wikipedia\"=>\"vi:Đường cao tốc Thành phố Hồ Chí Minh – Long Thành – Dầu Giây\"" }, "geometry": { "type": "LineString", "coordinates": [ [ 107.0708902, 10.8219464 ], [ 107.0743312, 10.8251709 ], [ 107.0786371, 10.829183 ], [ 107.0818458, 10.8320872 ], [ 107.0852936, 10.8350529 ], [ 107.0879277, 10.8372095 ], [ 107.0917193, 10.840215 ], [ 107.0934559, 10.8415981 ] ] } },
{ "type": "Feature", "properties": { "osm_id": "726935962", "name": "Đường cao tốc Thành phố Hồ Chí Minh – Long Thành – Dầu Giây", "highway": "motorway", "waterway": null, "aerialway": null, "barrier": null, "man_made": null, "railway": null, "z_order": 39, "other_tags": "\"bicycle\"=>\"no\",\"bridge\"=>\"yes\",\"foot\"=>\"no\",\"horse\"=>\"no\",\"int_ref\"=>\"AH1\",\"lanes\"=>\"2\",\"layer\"=>\"2\",\"maxspeed\"=>\"120\",\"minspeed\"=>\"60\",\"motor_vehicle\"=>\"yes\",\"motorcycle\"=>\"no\",\"name:en\"=>\"Ho Chi Minh City - Long Thanh - Dau Giay Expressway\",\"name:ja\"=>\"ホーチミン - ダウザイ高速道路\",\"name:vi\"=>\"Đường cao tốc Thành phố Hồ Chí Minh – Long Thành – Dầu Giây\",\"name:zh\"=>\"胡志明市-隆城-油移高速公路\",\"oneway\"=>\"yes\",\"ref\"=>\"CT.01;CT.29\",\"surface\"=>\"asphalt\",\"toll\"=>\"yes\",\"wikidata\"=>\"Q16479982\",\"wikipedia\"=>\"vi:Đường cao tốc Thành phố Hồ Chí Minh – Long Thành – Dầu Giây\"" }, "geometry": { "type": "LineString", "coordinates": [ [ 107.0704757, 10.8215583 ], [ 107.0708902, 10.8219464 ] ] } },
{ "type": "Feature", "properties": { "osm_id": "726935980", "name": "Đường cao tốc Thành phố Hồ Chí Minh – Long Thành – Dầu Giây", "highway": "motorway", "waterway": null, "aerialway": null, "barrier": null, "man_made": null, "railway": null, "z_order": 9, "other_tags": "\"bicycle\"=>\"no\",\"foot\"=>\"no\",\"horse\"=>\"no\",\"int_ref\"=>\"AH1\",\"lanes\"=>\"2\",\"maxspeed\"=>\"120\",\"minspeed\"=>\"60\",\"motor_vehicle\"=>\"yes\",\"motorcycle\"=>\"no\",\"name:en\"=>\"Ho Chi Minh City - Long Thanh - Dau Giay Expressway\",\"name:ja\"=>\"ホーチミン - ダウザイ高速道路\",\"name:vi\"=>\"Đường cao tốc Thành phố Hồ Chí Minh – Long Thành – Dầu Giây\",\"name:zh\"=>\"胡志明市-隆城-油移高速公路\",\"oneway\"=>\"yes\",\"ref\"=>\"CT.01;CT.29\",\"surface\"=>\"asphalt\",\"toll\"=>\"yes\",\"wikidata\"=>\"Q16479982\",\"wikipedia\"=>\"vi:Đường cao tốc Thành phố Hồ Chí Minh – Long Thành – Dầu Giây\"" }, "geometry": { "type": "LineString", "coordinates": [ [ 107.0585985, 10.8104638 ], [ 107.0704757, 10.8215583 ] ] } },
{ "type": "Feature", "properties": { "osm_id": "726935981", "name": "Đường cao tốc Thành phố Hồ Chí Minh – Long Thành – Dầu Giây", "highway": "motorway", "waterway": null, "aerialway": null, "barrier": null, "man_made": null, "railway": null, "z_order": 39, "other_tags": "\"bicycle\"=>\"no\",\"bridge\"=>\"yes\",\"foot\"=>\"no\",\"horse\"=>\"no\",\"int_ref\"=>\"AH1\",\"lanes\"=>\"2\",\"layer\"=>\"2\",\"maxspeed\"=>\"120\",\"minspeed\"=>\"60\",\"motor_vehicle\"=>\"yes\",\"motorcycle\"=>\"no\",\"name:en\"=>\"Ho Chi Minh City - Long Thanh - Dau Giay Expressway\",\"name:ja\"=>\"ホーチミン - ダウザイ高速道路\",\"name:vi\"=>\"Đường cao tốc Thành phố Hồ Chí Minh – Long Thành – Dầu Giây\",\"name:zh\"=>\"胡志明市-隆城-油移高速公路\",\"oneway\"=>\"yes\",\"ref\"=>\"CT.01;CT.29\",\"surface\"=>\"asphalt\",\"toll\"=>\"yes\",\"wikidata\"=>\"Q16479982\",\"wikipedia\"=>\"vi:Đường cao tốc Thành phố Hồ Chí Minh – Long Thành – Dầu Giây\"" }, "geometry": { "type": "LineString", "coordinates": [ [ 107.0580848, 10.8099751 ], [ 107.0585985, 10.8104638 ] ] } },
{ "type": "Feature", "properties": { "osm_id": "726935982", "name": "Đường cao tốc Thành phố Hồ Chí Minh – Long Thành – Dầu Giây", "highway": "motorway", "waterway": null, "aerialway": null, "barrier": null, "man_made": null, "railway": null, "z_order": 39, "other_tags": "\"bicycle\"=>\"no\",\"bridge\"=>\"yes\",\"foot\"=>\"no\",\"horse\"=>\"no\",\"int_ref\"=>\"AH1\",\"lanes\"=>\"2\",\"layer\"=>\"2\",\"maxspeed\"=>\"120\",\"minspeed\"=>\"60\",\"motor_vehicle\"=>\"yes\",\"motorcycle\"=>\"no\",\"name:en\"=>\"Ho Chi Minh City - Long Thanh - Dau Giay Expressway\",\"name:ja\"=>\"ホーチミン - ダウザイ高速道路\",\"name:vi\"=>\"Đường cao tốc Thành phố Hồ Chí Minh – Long Thành – Dầu Giây\",\"name:zh\"=>\"胡志明市-隆城-油移高速公路\",\"oneway\"=>\"yes\",\"ref\"=>\"CT.01;CT.29\",\"surface\"=>\"asphalt\",\"toll\"=>\"yes\",\"wikidata\"=>\"Q16479982\",\"wikipedia\"=>\"vi:Đường cao tốc Thành phố Hồ Chí Minh – Long Thành – Dầu Giây\"" }, "geometry": { "type": "LineString", "coordinates": [ [ 107.0584579, 10.8105803 ], [ 107.0579526, 10.8101007 ] ] } },
{ "type": "Feature", "properties": { "osm_id": "726935983", "name": "Đường cao tốc Thành phố Hồ Chí Minh – Long Thành – Dầu Giây", "highway": "motorway", "waterway": null, "aerialway": null, "barrier": null, "man_made": null, "railway": null, "z_order": 9, "other_tags": "\"bicycle\"=>\"no\",\"foot\"=>\"no\",\"horse\"=>\"no\",\"int_ref\"=>\"AH1\",\"lanes\"=>\"2\",\"maxspeed\"=>\"120\",\"minspeed\"=>\"60\",\"motor_vehicle\"=>\"yes\",\"motorcycle\"=>\"no\",\"name:en\"=>\"Ho Chi Minh City - Long Thanh - Dau Giay Expressway\",\"name:ja\"=>\"ホーチミン - ダウザイ高速道路\",\"name:vi\"=>\"Đường cao tốc Thành phố Hồ Chí Minh – Long Thành – Dầu Giây\",\"name:zh\"=>\"胡志明市-隆城-油移高速公路\",\"oneway\"=>\"yes\",\"ref\"=>\"CT.01;CT.29\",\"surface\"=>\"asphalt\",\"toll\"=>\"yes\",\"wikidata\"=>\"Q16479982\",\"wikipedia\"=>\"vi:Đường cao tốc Thành phố Hồ Chí Minh – Long Thành – Dầu Giây\"" }, "geometry": { "type": "LineString", "coordinates": [ [ 107.0933346, 10.8417099 ], [ 107.0932541, 10.8416469 ], [ 107.0915966, 10.8403494 ], [ 107.0877871, 10.837326 ], [ 107.0851531, 10.8351694 ], [ 107.0817053, 10.8322037 ], [ 107.0784966, 10.8292995 ], [ 107.0741907, 10.8252874 ], [ 107.0707497, 10.8220629 ] ] } },
{ "type": "Feature", "properties": { "osm_id": "818024572", "name": "Quốc lộ 51", "highway": "trunk", "waterway": null, "aerialway": null, "barrier": null, "man_made": null, "railway": null, "z_order": 8, "other_tags": "\"int_ref\"=>\"AH17\",\"lanes\"=>\"4\",\"lit\"=>\"yes\",\"maxspeed\"=>\"90\",\"maxspeed:motorcycle\"=>\"70\",\"name:en\"=>\"National Route 51\",\"name:vi\"=>\"Quốc lộ 51\",\"oneway\"=>\"yes\",\"ref\"=>\"QL.51\",\"sidewalk\"=>\"right\",\"sidewalk:right:surface\"=>\"concrete\",\"surface\"=>\"asphalt\",\"wikidata\"=>\"Q2380377\",\"wikipedia\"=>\"vi:Quốc lộ 51\"" }, "geometry": { "type": "LineString", "coordinates": [ [ 106.9837149, 10.7335528 ], [ 106.9841767, 10.7332188 ], [ 106.9848221, 10.7328668 ], [ 106.985622, 10.732486 ], [ 106.9857001, 10.7324464 ], [ 106.9865607, 10.7321147 ], [ 106.98763, 10.7317045 ], [ 106.9878582, 10.731617 ], [ 106.9881984, 10.7314757 ], [ 106.9885132, 10.7313451 ], [ 106.9895072, 10.7309324 ], [ 106.9897371, 10.730837 ], [ 106.9899304, 10.7307402 ], [ 106.9909493, 10.7302299 ], [ 106.9911336, 10.7301211 ], [ 106.991736, 10.7297653 ], [ 106.9923789, 10.7292541 ], [ 106.9930781, 10.7285233 ], [ 106.9934669, 10.7280486 ] ] } },
{ "type": "Feature", "properties": { "osm_id": "829416641", "name": "Hương lộ 10", "highway": "primary", "waterway": null, "aerialway": null, "barrier": null, "man_made": null, "railway": null, "z_order": 7, "other_tags": "\"lanes\"=>\"2\",\"oneway\"=>\"no\",\"ref\"=>\"ĐH.10\"" }, "geometry": { "type": "LineString", "coordinates": [ [ 107.1079416, 10.7912471 ], [ 107.1091676, 10.7957054 ], [ 107.1092571, 10.7960107 ], [ 107.1093374, 10.7963184 ], [ 107.1094085, 10.7966283 ], [ 107.1094702, 10.7969401 ], [ 107.1095225, 10.7972536 ], [ 107.1095654, 10.7975685 ], [ 107.1095989, 10.7978844 ], [ 107.1096228, 10.7982012 ], [ 107.1096351, 10.798473 ], [ 107.1096421, 10.7988362 ], [ 107.1096374, 10.7991538 ], [ 107.1096232, 10.7994712 ], [ 107.1095995, 10.799788 ], [ 107.1095663, 10.800104 ], [ 107.1095236, 10.8004189 ], [ 107.1094715, 10.8007324 ] ] } },
{ "type": "Feature", "properties": { "osm_id": "829717006", "name": "Hương lộ 10", "highway": "primary", "waterway": null, "aerialway": null, "barrier": null, "man_made": null, "railway": null, "z_order": 27, "other_tags": "\"bridge\"=>\"yes\",\"lanes\"=>\"2\",\"layer\"=>\"1\",\"oneway\"=>\"no\",\"ref\"=>\"ĐH.10\"" }, "geometry": { "type": "LineString", "coordinates": [ [ 107.1094715, 10.8007324 ], [ 107.109438, 10.8009025 ] ] } },
{ "type": "Feature", "properties": { "osm_id": "830761852", "name": "Đường T1", "highway": "primary", "waterway": null, "aerialway": null, "barrier": null, "man_made": null, "railway": null, "z_order": 27, "other_tags": "\"access\"=>\"no\",\"bridge\"=>\"yes\",\"bridge:name\"=>\"Cầu vượt ĐT.769D\",\"layer\"=>\"1\",\"oneway\"=>\"yes\",\"ref\"=>\"QL.20B;ĐT.769D\",\"surface\"=>\"asphalt\"" }, "geometry": { "type": "LineString", "coordinates": [ [ 106.9930575, 10.741749 ], [ 106.9925918, 10.7416331 ], [ 106.991726, 10.7414247 ], [ 106.9909872, 10.7412291 ], [ 106.9901286, 10.74096 ], [ 106.9894607, 10.7407268 ] ] } },
{ "type": "Feature", "properties": { "osm_id": "830761853", "name": "Đường T1", "highway": "primary", "waterway": null, "aerialway": null, "barrier": null, "man_made": null, "railway": null, "z_order": 27, "other_tags": "\"access\"=>\"no\",\"bridge\"=>\"yes\",\"bridge:name\"=>\"Cầu vượt ĐT.769D\",\"layer\"=>\"1\",\"oneway\"=>\"yes\",\"ref\"=>\"QL.20B;ĐT.769D\",\"surface\"=>\"asphalt\"" }, "geometry": { "type": "LineString", "coordinates": [ [ 106.9885806, 10.7401228 ], [ 106.9889789, 10.7402689 ], [ 106.9895949, 10.740482 ], [ 106.9902545, 10.7406866 ], [ 106.9910643, 10.7409225 ], [ 106.991784, 10.74109 ], [ 106.9926948, 10.7412425 ] ] } },
{ "type": "Feature", "properties": { "osm_id": "831268036", "name": "Đường tỉnh 769", "highway": "primary", "waterway": null, "aerialway": null, "barrier": null, "man_made": null, "railway": null, "z_order": 27, "other_tags": "\"bridge\"=>\"yes\",\"lanes\"=>\"2\",\"layer\"=>\"1\",\"ref\"=>\"ĐT.769\"" }, "geometry": { "type": "LineString", "coordinates": [ [ 107.0375824, 10.8040994 ], [ 107.0377121, 10.80425 ] ] } },
{ "type": "Feature", "properties": { "osm_id": "832230037", "name": "Đường cao tốc Biên Hòa – Vũng Tàu", "highway": "motorway", "waterway": null, "aerialway": null, "barrier": null, "man_made": null, "railway": null, "z_order": 9, "other_tags": "\"lanes\"=>\"3\",\"maxspeed\"=>\"80\",\"minspeed\"=>\"60\",\"motor_vehicle:conditional\"=>\"no @ (passenger_seats > 8)\",\"motorcycle\"=>\"no\",\"name:en\"=>\"Bien Hoa - Vung Tau Expressway\",\"oneway\"=>\"yes\",\"ref\"=>\"CT.01;CT.28\",\"surface\"=>\"asphalt\"" }, "geometry": { "type": "LineString", "coordinates": [ [ 106.9865787, 10.7456618 ], [ 106.9855459, 10.7469643 ], [ 106.9842433, 10.7486488 ], [ 106.9826517, 10.7507828 ], [ 106.9813641, 10.752623 ], [ 106.9799733, 10.7547013 ], [ 106.9785748, 10.7568264 ], [ 106.976078, 10.7606215 ] ] } },
{ "type": "Feature", "properties": { "osm_id": "834255280", "name": "Đường T1", "highway": "primary", "waterway": null, "aerialway": null, "barrier": null, "man_made": null, "railway": null, "z_order": 27, "other_tags": "\"access\"=>\"no\",\"bridge\"=>\"yes\",\"bridge:name\"=>\"Cầu vượt ĐT.769D\",\"layer\"=>\"1\",\"oneway\"=>\"yes\",\"ref\"=>\"QL.20B;ĐT.769D\",\"surface\"=>\"asphalt\"" }, "geometry": { "type": "LineString", "coordinates": [ [ 106.9894607, 10.7407268 ], [ 106.9888935, 10.7405477 ], [ 106.9884137, 10.7403575 ] ] } },
{ "type": "Feature", "properties": { "osm_id": "834269620", "name": "Đường T1", "highway": "primary", "waterway": null, "aerialway": null, "barrier": null, "man_made": null, "railway": null, "z_order": 27, "other_tags": "\"access\"=>\"no\",\"bridge\"=>\"yes\",\"layer\"=>\"1\",\"oneway\"=>\"yes\",\"ref\"=>\"QL.20B\",\"surface\"=>\"asphalt\"" }, "geometry": { "type": "LineString", "coordinates": [ [ 106.9926948, 10.7412425 ], [ 106.9932508, 10.7413835 ] ] } },
{ "type": "Feature", "properties": { "osm_id": "834285135", "name": "Đường cao tốc Biên Hòa – Vũng Tàu", "highway": "motorway", "waterway": null, "aerialway": null, "barrier": null, "man_made": null, "railway": null, "z_order": 9, "other_tags": "\"lanes\"=>\"4\",\"maxspeed\"=>\"80\",\"minspeed\"=>\"60\",\"motor_vehicle:conditional\"=>\"no @ (passenger_seats > 8)\",\"motorcycle\"=>\"no\",\"name:en\"=>\"Bien Hoa - Vung Tau Expressway\",\"oneway\"=>\"yes\",\"ref\"=>\"CT.01;CT.28\",\"surface\"=>\"asphalt\",\"wikidata\"=>\"Q24957174\",\"wikipedia\"=>\"vi:Đường cao tốc Biên Hòa – Vũng Tàu\"" }, "geometry": { "type": "LineString", "coordinates": [ [ 106.9863511, 10.7455622 ], [ 106.986779, 10.7450189 ], [ 106.9882903, 10.7430674 ] ] } },
{ "type": "Feature", "properties": { "osm_id": "834316637", "name": "Đường cao tốc Biên Hòa – Vũng Tàu", "highway": "motorway", "waterway": null, "aerialway": null, "barrier": null, "man_made": null, "railway": null, "z_order": 9, "other_tags": "\"lanes\"=>\"4\",\"maxspeed\"=>\"80\",\"minspeed\"=>\"60\",\"motor_vehicle:conditional\"=>\"no @ (passenger_seats > 8)\",\"motorcycle\"=>\"no\",\"name:en\"=>\"Bien Hoa - Vung Tau Expressway\",\"oneway\"=>\"yes\",\"ref\"=>\"CT.01;CT.28\",\"surface\"=>\"asphalt\",\"wikidata\"=>\"Q24957174\",\"wikipedia\"=>\"vi:Đường cao tốc Biên Hòa – Vũng Tàu\"" }, "geometry": { "type": "LineString", "coordinates": [ [ 106.9930082, 10.7375848 ], [ 106.9887469, 10.7429515 ] ] } },
{ "type": "Feature", "properties": { "osm_id": "834316640", "name": "Đường T1", "highway": "primary", "waterway": null, "aerialway": null, "barrier": null, "man_made": null, "railway": null, "z_order": 7, "other_tags": "\"access\"=>\"no\",\"oneway\"=>\"yes\",\"ref\"=>\"QL.20B;ĐT.769D\",\"surface\"=>\"asphalt\"" }, "geometry": { "type": "LineString", "coordinates": [ [ 106.9884137, 10.7403575 ], [ 106.987202, 10.7398923 ], [ 106.9856932, 10.7393131 ], [ 106.984739, 10.7389468 ], [ 106.9828975, 10.738231 ], [ 106.9817173, 10.7377169 ] ] } },
{ "type": "Feature", "properties": { "osm_id": "835697319", "name": "Đường T2", "highway": "motorway", "waterway": null, "aerialway": null, "barrier": null, "man_made": null, "railway": null, "z_order": 9, "other_tags": "\"access\"=>\"no\",\"lanes\"=>\"2\",\"maxspeed\"=>\"100\",\"oneway\"=>\"yes\",\"ref\"=>\"T2\"" }, "geometry": { "type": "LineString", "coordinates": [ [ 106.9750261, 10.7614806 ], [ 106.9756385, 10.7605507 ], [ 106.9796254, 10.7544924 ], [ 106.9810162, 10.7524141 ], [ 106.9823146, 10.7505575 ], [ 106.9839249, 10.7483984 ], [ 106.9852276, 10.746714 ], [ 106.9865343, 10.7451028 ], [ 106.9868016, 10.7447068 ] ] } },
{ "type": "Feature", "properties": { "osm_id": "840017410", "name": "Đường T2", "highway": "motorway", "waterway": null, "aerialway": null, "barrier": null, "man_made": null, "railway": null, "z_order": 9, "other_tags": "\"access\"=>\"no\",\"lanes\"=>\"2\",\"maxspeed\"=>\"100\",\"oneway\"=>\"yes\",\"ref\"=>\"T2\"" }, "geometry": { "type": "LineString", "coordinates": [ [ 106.9874735, 10.7447855 ], [ 106.9869699, 10.7454336 ], [ 106.9856741, 10.7470678 ], [ 106.9843715, 10.7487522 ], [ 106.9827876, 10.7508763 ], [ 106.9815045, 10.7527098 ], [ 106.9801138, 10.7547881 ], [ 106.9761195, 10.7608567 ], [ 106.9754509, 10.7618514 ] ] } },
{ "type": "Feature", "properties": { "osm_id": "852230618", "name": "Đường T1", "highway": "primary", "waterway": null, "aerialway": null, "barrier": null, "man_made": null, "railway": null, "z_order": 7, "other_tags": "\"access\"=>\"no\",\"oneway\"=>\"yes\",\"ref\"=>\"QL.20B;ĐT.769D\",\"surface\"=>\"asphalt\"" }, "geometry": { "type": "LineString", "coordinates": [ [ 106.9818513, 10.7374439 ], [ 106.9830166, 10.7379514 ], [ 106.9848581, 10.7386672 ], [ 106.986982, 10.7394946 ], [ 106.9873122, 10.7396244 ], [ 106.9885806, 10.7401228 ] ] } },
{ "type": "Feature", "properties": { "osm_id": "855269485", "name": "Đường T1", "highway": "primary", "waterway": null, "aerialway": null, "barrier": null, "man_made": null, "railway": null, "z_order": 27, "other_tags": "\"access\"=>\"no\",\"bridge\"=>\"yes\",\"bridge:name\"=>\"Cầu vượt Nút giao T1\",\"layer\"=>\"1\",\"oneway\"=>\"yes\",\"ref\"=>\"QL.20B;ĐT.769D\",\"surface\"=>\"asphalt\"" }, "geometry": { "type": "LineString", "coordinates": [ [ 106.9817173, 10.7377169 ], [ 106.9810726, 10.7373928 ], [ 106.980447, 10.7370163 ], [ 106.979827, 10.7366006 ], [ 106.9793595, 10.7362377 ], [ 106.9786855, 10.7357037 ] ] } },
{ "type": "Feature", "properties": { "osm_id": "855269486", "name": "Đường T1", "highway": "primary", "waterway": null, "aerialway": null, "barrier": null, "man_made": null, "railway": null, "z_order": 27, "other_tags": "\"access\"=>\"no\",\"bridge\"=>\"yes\",\"bridge:name\"=>\"Cầu vượt Nút giao T1\",\"layer\"=>\"1\",\"oneway\"=>\"yes\",\"ref\"=>\"QL.20B;ĐT.769D\",\"surface\"=>\"asphalt\"" }, "geometry": { "type": "LineString", "coordinates": [ [ 106.9788416, 10.7355206 ], [ 106.9795141, 10.7360534 ], [ 106.9799998, 10.7363495 ], [ 106.9806137, 10.7367613 ], [ 106.9812245, 10.737129 ], [ 106.9818513, 10.7374439 ] ] } },
{ "type": "Feature", "properties": { "osm_id": "893777026", "name": "Đường cao tốc Biên Hòa – Vũng Tàu", "highway": "motorway", "waterway": null, "aerialway": null, "barrier": null, "man_made": null, "railway": null, "z_order": 9, "other_tags": "\"lanes\"=>\"3\",\"maxspeed\"=>\"80\",\"minspeed\"=>\"60\",\"motor_vehicle:conditional\"=>\"no @ (passenger_seats > 8)\",\"motorcycle\"=>\"no\",\"name:en\"=>\"Bien Hoa - Vung Tau Expressway\",\"oneway\"=>\"yes\",\"ref\"=>\"CT.01;CT.28\",\"surface\"=>\"asphalt\"" }, "geometry": { "type": "LineString", "coordinates": [ [ 106.9748618, 10.7620323 ], [ 106.9757784, 10.7606383 ], [ 106.9758654, 10.760506 ], [ 106.9797659, 10.7545792 ], [ 106.9811566, 10.7525008 ], [ 106.9815325, 10.7519393 ], [ 106.9824505, 10.7506509 ], [ 106.9840531, 10.7485019 ], [ 106.9853558, 10.7468174 ], [ 106.9863511, 10.7455622 ] ] } },
{ "type": "Feature", "properties": { "osm_id": "1028862030", "name": "Quốc lộ 51", "highway": "trunk", "waterway": null, "aerialway": null, "barrier": null, "man_made": null, "railway": null, "z_order": 8, "other_tags": "\"destination\"=>\"TP. Vũng Tàu\",\"int_ref\"=>\"AH17\",\"lanes\"=>\"4\",\"lit\"=>\"yes\",\"maxspeed\"=>\"50\",\"name:en\"=>\"National Route 51\",\"name:vi\"=>\"Quốc lộ 51\",\"oneway\"=>\"yes\",\"ref\"=>\"QL.51\",\"sidewalk\"=>\"right\",\"sidewalk:right:surface\"=>\"concrete\",\"surface\"=>\"asphalt\",\"wikidata\"=>\"Q2380377\",\"wikipedia\"=>\"vi:Quốc lộ 51\"" }, "geometry": { "type": "LineString", "coordinates": [ [ 106.9780998, 10.7393669 ], [ 106.9788156, 10.7384952 ], [ 106.9801388, 10.7368838 ] ] } },
{ "type": "Feature", "properties": { "osm_id": "1028862032", "name": "Quốc lộ 51", "highway": "trunk", "waterway": null, "aerialway": null, "barrier": null, "man_made": null, "railway": null, "z_order": 8, "other_tags": "\"int_ref\"=>\"AH17\",\"lanes\"=>\"4\",\"lit\"=>\"yes\",\"maxspeed\"=>\"90\",\"maxspeed:motorcycle\"=>\"70\",\"name:en\"=>\"National Route 51\",\"name:vi\"=>\"Quốc lộ 51\",\"oneway\"=>\"yes\",\"ref\"=>\"QL.51\",\"sidewalk\"=>\"right\",\"sidewalk:right:surface\"=>\"concrete\",\"surface\"=>\"asphalt\",\"wikidata\"=>\"Q2380377\",\"wikipedia\"=>\"vi:Quốc lộ 51\"" }, "geometry": { "type": "LineString", "coordinates": [ [ 106.97826, 10.7394952 ], [ 106.9777555, 10.7401209 ], [ 106.977628, 10.740279 ], [ 106.9774619, 10.7404851 ], [ 106.976864, 10.7412266 ], [ 106.9764308, 10.7417639 ], [ 106.9757383, 10.7426229 ], [ 106.9744905, 10.7441704 ], [ 106.9740892, 10.7446682 ], [ 106.9739977, 10.7447799 ], [ 106.9723079, 10.7468417 ], [ 106.9716716, 10.747618 ], [ 106.9715339, 10.7477861 ], [ 106.9714421, 10.747898 ], [ 106.9706728, 10.7488367 ], [ 106.9696664, 10.7500647 ], [ 106.9691665, 10.7506178 ], [ 106.9687033, 10.7510674 ], [ 106.9686436, 10.7511255 ], [ 106.9681041, 10.7516264 ], [ 106.9680339, 10.7516917 ], [ 106.967947, 10.7517651 ] ] } },
{ "type": "Feature", "properties": { "osm_id": "1046070727", "name": "Đường tỉnh 773", "highway": "primary", "waterway": null, "aerialway": null, "barrier": null, "man_made": null, "railway": null, "z_order": 7, "other_tags": "\"ref\"=>\"ĐT.773\"" }, "geometry": { "type": "LineString", "coordinates": [ [ 107.1079416, 10.7912471 ], [ 107.1081975, 10.7913167 ], [ 107.1087249, 10.79146 ], [ 107.1091092, 10.7915749 ], [ 107.1092471, 10.7916161 ], [ 107.1094852, 10.7916873 ], [ 107.1100477, 10.7918517 ], [ 107.1103273, 10.7919334 ], [ 107.110346, 10.7919388 ], [ 107.1105465, 10.7919974 ], [ 107.1109439, 10.7921172 ], [ 107.1110966, 10.7921605 ], [ 107.1112649, 10.792206 ], [ 107.1114487, 10.7922557 ], [ 107.111831, 10.7923778 ], [ 107.1119491, 10.7924155 ], [ 107.1119933, 10.7924256 ], [ 107.112182, 10.7924844 ], [ 107.1129616, 10.7927273 ], [ 107.1129782, 10.792731 ], [ 107.1139237, 10.7930067 ], [ 107.1140185, 10.7930357 ], [ 107.1144197, 10.7931583 ], [ 107.1148586, 10.7932925 ], [ 107.1156614, 10.7935329 ], [ 107.1157814, 10.7935688 ], [ 107.1159642, 10.7936261 ], [ 107.1163886, 10.7937573 ], [ 107.1170574, 10.7939572 ], [ 107.1171011, 10.7939702 ], [ 107.1174822, 10.7940771 ], [ 107.1180212, 10.7942397 ], [ 107.1183659, 10.7943515 ], [ 107.1190524, 10.7945502 ], [ 107.1195003, 10.7946867 ], [ 107.1195483, 10.7947071 ], [ 107.1204451, 10.7949475 ], [ 107.1211803, 10.7951627 ], [ 107.1224891, 10.7955608 ], [ 107.1232361, 10.7957864 ], [ 107.1236729, 10.7959346 ], [ 107.1241471, 10.7961152 ], [ 107.1244505, 10.7962422 ], [ 107.1247263, 10.7963658 ], [ 107.1251966, 10.7965824 ], [ 107.1257663, 10.796858 ], [ 107.1263166, 10.7971131 ], [ 107.1267572, 10.7973302 ], [ 107.1272303, 10.7975862 ], [ 107.127988, 10.7980574 ], [ 107.1312995, 10.7996628 ], [ 107.1314716, 10.7997576 ], [ 107.1339017, 10.800911 ], [ 107.1343589, 10.8010433 ], [ 107.1418034, 10.8027123 ], [ 107.1419569, 10.8027467 ], [ 107.1459761, 10.8037153 ], [ 107.1491432, 10.8044104 ], [ 107.150603, 10.8047408 ], [ 107.1533279, 10.8053064 ] ] } },
{ "type": "Feature", "properties": { "osm_id": "1108417957", "name": "Đường cao tốc Biên Hòa – Vũng Tàu", "highway": "motorway", "waterway": null, "aerialway": null, "barrier": null, "man_made": null, "railway": null, "z_order": 9, "other_tags": "\"lanes\"=>\"2\",\"maxspeed\"=>\"80\",\"minspeed\"=>\"60\",\"motor_vehicle:conditional\"=>\"no @ (passenger_seats > 8)\",\"name:en\"=>\"Bien Hoa - Vung Tau Expressway\",\"oneway\"=>\"yes\",\"ref\"=>\"CT.01;CT.28\",\"surface\"=>\"asphalt\"" }, "geometry": { "type": "LineString", "coordinates": [ [ 106.9721135, 10.7663102 ], [ 106.9737413, 10.7637129 ] ] } },
{ "type": "Feature", "properties": { "osm_id": "1108417958", "name": "Đường cao tốc Biên Hòa – Vũng Tàu", "highway": "motorway", "waterway": null, "aerialway": null, "barrier": null, "man_made": null, "railway": null, "z_order": 9, "other_tags": "\"access\"=>\"yes\",\"bicycle\"=>\"no\",\"foot\"=>\"no\",\"horse\"=>\"no\",\"lanes\"=>\"3\",\"maxspeed\"=>\"100\",\"minspeed\"=>\"60\",\"motor_vehicle:conditional\"=>\"no @ (passenger_seats > 8)\",\"name:en\"=>\"Bien Hoa - Vung Tau Expressway\",\"oneway\"=>\"yes\",\"ref\"=>\"CT.28\",\"surface\"=>\"asphalt\"" }, "geometry": { "type": "LineString", "coordinates": [ [ 106.9739165, 10.7638285 ], [ 106.9707662, 10.768928 ] ] } },
{ "type": "Feature", "properties": { "osm_id": "1108417965", "name": "Đường cao tốc Biên Hòa – Vũng Tàu", "highway": "motorway", "waterway": null, "aerialway": null, "barrier": null, "man_made": null, "railway": null, "z_order": 9, "other_tags": "\"access\"=>\"yes\",\"bicycle\"=>\"no\",\"foot\"=>\"no\",\"horse\"=>\"no\",\"lanes\"=>\"2\",\"maxspeed\"=>\"80\",\"minspeed\"=>\"60\",\"motor_vehicle:conditional\"=>\"no @ (passenger_seats > 8)\",\"name:en\"=>\"Bien Hoa - Vung Tau Expressway\",\"oneway\"=>\"yes\",\"ref\"=>\"CT.28\",\"surface\"=>\"asphalt\"" }, "geometry": { "type": "LineString", "coordinates": [ [ 106.9695413, 10.7706057 ], [ 106.9696368, 10.7704424 ], [ 106.969702, 10.770331 ], [ 106.9712419, 10.7676979 ] ] } },
{ "type": "Feature", "properties": { "osm_id": "1108417966", "name": "Đường cao tốc Biên Hòa – Vũng Tàu", "highway": "motorway", "waterway": null, "aerialway": null, "barrier": null, "man_made": null, "railway": null, "z_order": 9, "other_tags": "\"access\"=>\"yes\",\"bicycle\"=>\"no\",\"foot\"=>\"no\",\"horse\"=>\"no\",\"lanes\"=>\"2\",\"maxspeed\"=>\"100\",\"minspeed\"=>\"80\",\"motor_vehicle:conditional\"=>\"no @ (passenger_seats > 8)\",\"name:en\"=>\"Bien Hoa - Vung Tau Expressway\",\"oneway\"=>\"yes\",\"ref\"=>\"CT.28\",\"surface\"=>\"asphalt\"" }, "geometry": { "type": "LineString", "coordinates": [ [ 106.9707662, 10.768928 ], [ 106.9691818, 10.7716367 ], [ 106.9690868, 10.7717992 ], [ 106.9683056, 10.7731863 ] ] } },
{ "type": "Feature", "properties": { "osm_id": "1108417967", "name": "Đường cao tốc Biên Hòa – Vũng Tàu", "highway": "motorway", "waterway": null, "aerialway": null, "barrier": null, "man_made": null, "railway": null, "z_order": 9, "other_tags": "\"lanes\"=>\"2\",\"maxspeed\"=>\"80\",\"minspeed\"=>\"80\",\"motor_vehicle:conditional\"=>\"no @ (passenger_seats > 8)\",\"motorcycle\"=>\"no\",\"name:en\"=>\"Bien Hoa - Vung Tau Expressway\",\"oneway\"=>\"yes\",\"ref\"=>\"CT.01;CT.28\",\"surface\"=>\"asphalt\",\"wikidata\"=>\"Q24957174\",\"wikipedia\"=>\"vi:Đường cao tốc Biên Hòa – Vũng Tàu\"" }, "geometry": { "type": "LineString", "coordinates": [ [ 107.0362132, 10.6810845 ], [ 107.0351047, 10.6829029 ], [ 107.0341883, 10.6841023 ], [ 107.033002, 10.685541 ], [ 107.029314, 10.6899498 ], [ 107.024382, 10.6958292 ], [ 107.0212559, 10.6995904 ], [ 107.0192438, 10.7021951 ], [ 107.0172115, 10.7050009 ], [ 107.0091856, 10.7163514 ], [ 107.0062451, 10.7203807 ], [ 107.0050156, 10.7220405 ] ] } },
{ "type": "Feature", "properties": { "osm_id": "1108417968", "name": "Đường cao tốc Biên Hòa – Vũng Tàu", "highway": "motorway", "waterway": null, "aerialway": null, "barrier": null, "man_made": null, "railway": null, "z_order": 9, "other_tags": "\"lanes\"=>\"2\",\"maxspeed\"=>\"80\",\"minspeed\"=>\"80\",\"motor_vehicle:conditional\"=>\"no @ (passenger_seats > 8)\",\"motorcycle\"=>\"no\",\"name:en\"=>\"Bien Hoa - Vung Tau Expressway\",\"oneway\"=>\"yes\",\"ref\"=>\"CT01;CT.28\",\"surface\"=>\"asphalt\",\"wikidata\"=>\"Q24957174\",\"wikipedia\"=>\"vi:Đường cao tốc Biên Hòa – Vũng Tàu\"" }, "geometry": { "type": "LineString", "coordinates": [ [ 107.0048892, 10.721926 ], [ 107.0061075, 10.7202821 ], [ 107.0090479, 10.7162527 ], [ 107.0170738, 10.7049023 ], [ 107.0191223, 10.7020776 ], [ 107.0211262, 10.6994817 ], [ 107.0242443, 10.6957306 ], [ 107.0291893, 10.6898353 ], [ 107.0328668, 10.6854386 ], [ 107.0340559, 10.6839964 ], [ 107.0349592, 10.6828152 ], [ 107.0360601, 10.6810104 ], [ 107.0366584, 10.6797354 ] ] } },
{ "type": "Feature", "properties": { "osm_id": "1162524248", "name": "Đường cao tốc Biên Hòa – Vũng Tàu", "highway": "motorway", "waterway": null, "aerialway": null, "barrier": null, "man_made": null, "railway": null, "z_order": 9, "other_tags": "\"lanes\"=>\"3\",\"maxspeed\"=>\"80\",\"minspeed\"=>\"60\",\"motor_vehicle:conditional\"=>\"no @ (passenger_seats > 8)\",\"name:en\"=>\"Bien Hoa - Vung Tau Expressway\",\"oneway\"=>\"yes\",\"ref\"=>\"CT.01;CT.28\",\"surface\"=>\"asphalt\"" }, "geometry": { "type": "LineString", "coordinates": [ [ 106.9712419, 10.7676979 ], [ 106.9721135, 10.7663102 ] ] } },
{ "type": "Feature", "properties": { "osm_id": "1258511993", "name": "Quốc lộ 51", "highway": "trunk", "waterway": null, "aerialway": null, "barrier": null, "man_made": null, "railway": null, "z_order": 8, "other_tags": "\"int_ref\"=>\"AH17\",\"lanes\"=>\"4\",\"lit\"=>\"yes\",\"maxspeed\"=>\"90\",\"maxspeed:motorcycle\"=>\"70\",\"name:en\"=>\"National Route 51\",\"name:vi\"=>\"Quốc lộ 51\",\"oneway\"=>\"yes\",\"ref\"=>\"QL.51\",\"sidewalk\"=>\"right\",\"sidewalk:right:surface\"=>\"concrete\",\"surface\"=>\"asphalt\",\"wikidata\"=>\"Q2380377\",\"wikipedia\"=>\"vi:Quốc lộ 51\"" }, "geometry": { "type": "LineString", "coordinates": [ [ 106.9938798, 10.7275445 ], [ 106.9939504, 10.7274544 ], [ 106.9946109, 10.7266118 ], [ 106.9946771, 10.7265274 ], [ 106.9947461, 10.7264493 ] ] } },
{ "type": "Feature", "properties": { "osm_id": "1258511994", "name": "Quốc lộ 51", "highway": "trunk", "waterway": null, "aerialway": null, "barrier": null, "man_made": null, "railway": null, "z_order": 8, "other_tags": "\"int_ref\"=>\"AH17\",\"lanes\"=>\"4\",\"lit\"=>\"yes\",\"maxspeed\"=>\"90\",\"maxspeed:motorcycle\"=>\"70\",\"name:en\"=>\"National Route 51\",\"name:vi\"=>\"Quốc lộ 51\",\"oneway\"=>\"yes\",\"ref\"=>\"QL.51\",\"sidewalk\"=>\"right\",\"sidewalk:right:surface\"=>\"concrete\",\"surface\"=>\"asphalt\",\"wikidata\"=>\"Q2380377\",\"wikipedia\"=>\"vi:Quốc lộ 51\"" }, "geometry": { "type": "LineString", "coordinates": [ [ 106.9988582, 10.7208422 ], [ 106.9983761, 10.7219186 ], [ 106.9980785, 10.7224937 ], [ 106.997881, 10.7228753 ], [ 106.9973763, 10.7236448 ], [ 106.9968672, 10.7244066 ], [ 106.9963113, 10.7249692 ] ] } },
{ "type": "Feature", "properties": { "osm_id": "1276741646", "name": "Quốc lộ 51", "highway": "trunk", "waterway": null, "aerialway": null, "barrier": null, "man_made": null, "railway": null, "z_order": 8, "other_tags": "\"int_ref\"=>\"AH17\",\"lanes\"=>\"4\",\"lit\"=>\"yes\",\"maxspeed\"=>\"50\",\"name:en\"=>\"National Route 51\",\"name:vi\"=>\"Quốc lộ 51\",\"oneway\"=>\"yes\",\"ref\"=>\"QL.51\",\"sidewalk\"=>\"right\",\"sidewalk:right:surface\"=>\"concrete\",\"surface\"=>\"asphalt\",\"wikidata\"=>\"Q2380377\",\"wikipedia\"=>\"vi:Quốc lộ 51\"" }, "geometry": { "type": "LineString", "coordinates": [ [ 106.9956835, 10.725389 ], [ 106.9958923, 10.7251447 ], [ 106.9963327, 10.7246294 ], [ 106.9964014, 10.724549 ], [ 106.9965052, 10.7243799 ], [ 106.9965985, 10.7242278 ], [ 106.9970997, 10.723478 ], [ 106.9976067, 10.722705 ], [ 106.9980411, 10.7221183 ] ] } },
{ "type": "Feature", "properties": { "osm_id": "1276741647", "name": "Quốc lộ 51", "highway": "trunk", "waterway": null, "aerialway": null, "barrier": null, "man_made": null, "railway": null, "z_order": 8, "other_tags": "\"int_ref\"=>\"AH17\",\"lanes\"=>\"4\",\"lit\"=>\"yes\",\"maxspeed\"=>\"90\",\"maxspeed:motorcycle\"=>\"70\",\"name:en\"=>\"National Route 51\",\"name:vi\"=>\"Quốc lộ 51\",\"oneway\"=>\"yes\",\"ref\"=>\"QL.51\",\"sidewalk\"=>\"right\",\"sidewalk:right:surface\"=>\"concrete\",\"surface\"=>\"asphalt\",\"wikidata\"=>\"Q2380377\",\"wikipedia\"=>\"vi:Quốc lộ 51\"" }, "geometry": { "type": "LineString", "coordinates": [ [ 106.9933973, 10.7284575 ], [ 106.9932378, 10.7286522 ], [ 106.9925173, 10.729405 ], [ 106.9918558, 10.7299308 ], [ 106.9910422, 10.7304113 ], [ 106.9906966, 10.7305843 ], [ 106.9900327, 10.7309167 ], [ 106.9898229, 10.7310217 ], [ 106.9895995, 10.7311144 ], [ 106.987944, 10.7318017 ], [ 106.9857989, 10.7326246 ], [ 106.9849242, 10.733044 ], [ 106.9848247, 10.7330968 ], [ 106.9842874, 10.7333903 ], [ 106.9838062, 10.7337384 ], [ 106.9830041, 10.7343187 ], [ 106.9829403, 10.7343718 ] ] } },
{ "type": "Feature", "properties": { "osm_id": "1276741648", "name": "Quốc lộ 51", "highway": "trunk", "waterway": null, "aerialway": null, "barrier": null, "man_made": null, "railway": null, "z_order": 8, "other_tags": "\"int_ref\"=>\"AH17\",\"lanes\"=>\"4\",\"lit\"=>\"yes\",\"maxspeed\"=>\"90\",\"maxspeed:motorcycle\"=>\"70\",\"name:en\"=>\"National Route 51\",\"name:vi\"=>\"Quốc lộ 51\",\"oneway\"=>\"yes\",\"ref\"=>\"QL.51\",\"sidewalk\"=>\"right\",\"sidewalk:right:surface\"=>\"concrete\",\"surface\"=>\"asphalt\",\"wikidata\"=>\"Q2380377\",\"wikipedia\"=>\"vi:Quốc lộ 51\"" }, "geometry": { "type": "LineString", "coordinates": [ [ 106.9934669, 10.7280486 ], [ 106.9938216, 10.7276155 ], [ 106.9938798, 10.7275445 ] ] } },
{ "type": "Feature", "properties": { "osm_id": "1276741649", "name": "Quốc lộ 51", "highway": "trunk", "waterway": null, "aerialway": null, "barrier": null, "man_made": null, "railway": null, "z_order": 8, "other_tags": "\"int_ref\"=>\"AH17\",\"lanes\"=>\"4\",\"lit\"=>\"yes\",\"maxspeed\"=>\"90\",\"maxspeed:motorcycle\"=>\"70\",\"name:en\"=>\"National Route 51\",\"name:vi\"=>\"Quốc lộ 51\",\"oneway\"=>\"yes\",\"ref\"=>\"QL.51\",\"sidewalk\"=>\"right\",\"sidewalk:right:surface\"=>\"concrete\",\"surface\"=>\"asphalt\",\"wikidata\"=>\"Q2380377\",\"wikipedia\"=>\"vi:Quốc lộ 51\"" }, "geometry": { "type": "LineString", "coordinates": [ [ 106.9949515, 10.7265266 ], [ 106.9948308, 10.7266631 ], [ 106.9941094, 10.7275661 ], [ 106.9940373, 10.727671 ] ] } },
{ "type": "Feature", "properties": { "osm_id": "1318065380", "name": "Cầu vượt Nút giao Long Thành", "highway": "motorway", "waterway": null, "aerialway": null, "barrier": null, "man_made": null, "railway": null, "z_order": 39, "other_tags": "\"bridge\"=>\"yes\",\"bridge:name\"=>\"Cầu vượt Nút giao Long Thành\",\"bridge:name:en\"=>\"Long Thanh Intersection Overpass\",\"lanes\"=>\"2\",\"layer\"=>\"2\",\"maxspeed\"=>\"60\",\"name:en\"=>\"Long Thanh Intersection Overpass\",\"oneway\"=>\"yes\",\"ref\"=>\"CT.29\",\"surface\"=>\"asphalt\",\"toll\"=>\"yes\",\"wikidata\"=>\"Q16479982\",\"wikipedia\"=>\"vi:Đường cao tốc Thành phố Hồ Chí Minh – Long Thành – Dầu Giây\"" }, "geometry": { "type": "LineString", "coordinates": [ [ 106.9716036, 10.766719 ], [ 106.9726706, 10.7669399 ], [ 106.9761321, 10.7676566 ] ] } },
{ "type": "Feature", "properties": { "osm_id": "1347376155", "name": "Cầu vượt Nút giao Long Thành", "highway": "motorway", "waterway": null, "aerialway": null, "barrier": null, "man_made": null, "railway": null, "z_order": 39, "other_tags": "\"bridge\"=>\"yes\",\"bridge:name\"=>\"Cầu vượt Nút giao Long Thành\",\"bridge:name:en\"=>\"Long Thanh Intersection Overpass\",\"lanes\"=>\"2\",\"layer\"=>\"2\",\"maxspeed\"=>\"60\",\"name:en\"=>\"Long Thanh Intersection Overpass\",\"oneway\"=>\"yes\",\"ref\"=>\"CT.01;CT.29\",\"surface\"=>\"asphalt\",\"toll\"=>\"yes\",\"wikidata\"=>\"Q16479982\",\"wikipedia\"=>\"vi:Đường cao tốc Thành phố Hồ Chí Minh – Long Thành – Dầu Giây\"" }, "geometry": { "type": "LineString", "coordinates": [ [ 106.9760458, 10.7680618 ], [ 106.9758466, 10.7680187 ], [ 106.9706124, 10.7669041 ] ] } },
{ "type": "Feature", "properties": { "osm_id": "1376134551", "name": "Đường T1", "highway": "primary", "waterway": null, "aerialway": null, "barrier": null, "man_made": null, "railway": null, "z_order": 7, "other_tags": "\"access\"=>\"no\",\"oneway\"=>\"yes\",\"ref\"=>\"QL.20B;ĐT.769D\",\"surface\"=>\"asphalt\"" }, "geometry": { "type": "LineString", "coordinates": [ [ 106.9932508, 10.7413835 ], [ 106.9960597, 10.7419438 ], [ 106.9966957, 10.7420573 ], [ 106.9989537, 10.742479 ], [ 107.0010001, 10.7430466 ], [ 107.0026507, 10.7436242 ], [ 107.0040452, 10.7441664 ], [ 107.0053996, 10.7447617 ], [ 107.0067291, 10.7454202 ], [ 107.0081614, 10.7462287 ], [ 107.0100864, 10.7474644 ], [ 107.0125372, 10.7491806 ] ] } },
{ "type": "Feature", "properties": { "osm_id": "1376134552", "name": "Đường T1", "highway": "primary", "waterway": null, "aerialway": null, "barrier": null, "man_made": null, "railway": null, "z_order": 7, "other_tags": "\"access\"=>\"no\",\"oneway\"=>\"yes\",\"ref\"=>\"QL.20B;ĐT.769D\",\"surface\"=>\"asphalt\"" }, "geometry": { "type": "LineString", "coordinates": [ [ 107.0119793, 10.7499293 ], [ 107.0095284, 10.7482131 ], [ 107.0076315, 10.7469969 ], [ 107.0062419, 10.7462151 ], [ 107.0049345, 10.7455693 ], [ 107.0036228, 10.7449964 ], [ 107.0022537, 10.7444662 ], [ 107.0018696, 10.7443328 ], [ 107.0006715, 10.7439166 ], [ 106.9986769, 10.7433662 ], [ 106.9979483, 10.7431014 ], [ 106.9965717, 10.7426522 ], [ 106.9959397, 10.7424748 ], [ 106.9953344, 10.7423218 ], [ 106.9930575, 10.741749 ] ] } },
{ "type": "Feature", "properties": { "osm_id": "1377715023", "name": "Đường cao tốc Biên Hòa – Vũng Tàu", "highway": "motorway", "waterway": null, "aerialway": null, "barrier": null, "man_made": null, "railway": null, "z_order": 9, "other_tags": "\"lanes\"=>\"4\",\"maxspeed\"=>\"80\",\"minspeed\"=>\"60\",\"motor_vehicle:conditional\"=>\"no @ (passenger_seats > 8)\",\"motorcycle\"=>\"no\",\"name:en\"=>\"Bien Hoa - Vung Tau Expressway\",\"oneway\"=>\"yes\",\"ref\"=>\"CT.01;CT.28\",\"surface\"=>\"asphalt\",\"wikidata\"=>\"Q24957174\",\"wikipedia\"=>\"vi:Đường cao tốc Biên Hòa – Vũng Tàu\"" }, "geometry": { "type": "LineString", "coordinates": [ [ 106.9902959, 10.7405503 ], [ 106.9917056, 10.7387845 ] ] } },
{ "type": "Feature", "properties": { "osm_id": "1377715027", "name": "Đường cao tốc Biên Hòa – Vũng Tàu", "highway": "motorway", "waterway": null, "aerialway": null, "barrier": null, "man_made": null, "railway": null, "z_order": 9, "other_tags": "\"lanes\"=>\"4\",\"maxspeed\"=>\"80\",\"minspeed\"=>\"60\",\"motor_vehicle:conditional\"=>\"no @ (passenger_seats > 8)\",\"motorcycle\"=>\"no\",\"name:en\"=>\"Bien Hoa - Vung Tau Expressway\",\"oneway\"=>\"yes\",\"ref\"=>\"CT.01;CT.28\",\"surface\"=>\"asphalt\",\"wikidata\"=>\"Q24957174\",\"wikipedia\"=>\"vi:Đường cao tốc Biên Hòa – Vũng Tàu\"" }, "geometry": { "type": "LineString", "coordinates": [ [ 106.9885234, 10.7427837 ], [ 106.9902959, 10.7405503 ] ] } },
{ "type": "Feature", "properties": { "osm_id": "1377715028", "name": "Cầu Đá Vàng", "highway": "motorway", "waterway": null, "aerialway": null, "barrier": null, "man_made": null, "railway": null, "z_order": 39, "other_tags": "\"bridge\"=>\"yes\",\"lanes\"=>\"4\",\"layer\"=>\"2\",\"maxspeed\"=>\"80\",\"minspeed\"=>\"60\",\"motor_vehicle:conditional\"=>\"no @ (passenger_seats > 8)\",\"motorcycle\"=>\"no\",\"name:en\"=>\"Da Vang Bridge\",\"oneway\"=>\"yes\",\"ref\"=>\"CT.01;CT.28\",\"surface\"=>\"asphalt\",\"wikidata\"=>\"Q24957174\",\"wikipedia\"=>\"vi:Đường cao tốc Biên Hòa – Vũng Tàu\"" }, "geometry": { "type": "LineString", "coordinates": [ [ 106.9882903, 10.7430674 ], [ 106.9885234, 10.7427837 ] ] } },
{ "type": "Feature", "properties": { "osm_id": "1377715029", "name": "Đường cao tốc Biên Hòa – Vũng Tàu", "highway": "motorway", "waterway": null, "aerialway": null, "barrier": null, "man_made": null, "railway": null, "z_order": 9, "other_tags": "\"lanes\"=>\"4\",\"maxspeed\"=>\"80\",\"minspeed\"=>\"60\",\"motor_vehicle:conditional\"=>\"no @ (passenger_seats > 8)\",\"motorcycle\"=>\"no\",\"name:en\"=>\"Bien Hoa - Vung Tau Expressway\",\"oneway\"=>\"yes\",\"ref\"=>\"CT.01;CT.28\",\"surface\"=>\"asphalt\",\"wikidata\"=>\"Q24957174\",\"wikipedia\"=>\"vi:Đường cao tốc Biên Hòa – Vũng Tàu\"" }, "geometry": { "type": "LineString", "coordinates": [ [ 106.9885138, 10.7432353 ], [ 106.9865787, 10.7456618 ] ] } },
{ "type": "Feature", "properties": { "osm_id": "1377715030", "name": "Cầu Đá Vàng", "highway": "motorway", "waterway": null, "aerialway": null, "barrier": null, "man_made": null, "railway": null, "z_order": 39, "other_tags": "\"bridge\"=>\"yes\",\"lanes\"=>\"4\",\"layer\"=>\"2\",\"maxspeed\"=>\"80\",\"minspeed\"=>\"60\",\"motor_vehicle:conditional\"=>\"no @ (passenger_seats > 8)\",\"motorcycle\"=>\"no\",\"name:en\"=>\"Da Vang Bridge\",\"oneway\"=>\"yes\",\"ref\"=>\"CT.01;CT.28\",\"surface\"=>\"asphalt\",\"wikidata\"=>\"Q24957174\",\"wikipedia\"=>\"vi:Đường cao tốc Biên Hòa – Vũng Tàu\"" }, "geometry": { "type": "LineString", "coordinates": [ [ 106.9887469, 10.7429515 ], [ 106.9885138, 10.7432353 ] ] } },
{ "type": "Feature", "properties": { "osm_id": "1409430359", "name": "Quốc lộ 51", "highway": "trunk", "waterway": null, "aerialway": null, "barrier": null, "man_made": null, "railway": null, "z_order": 8, "other_tags": "\"destination\"=>\"TP. Vũng Tàu\",\"int_ref\"=>\"AH17\",\"lanes\"=>\"4\",\"maxspeed\"=>\"90\",\"maxspeed:motorcycle\"=>\"70\",\"oneway\"=>\"yes\",\"ref\"=>\"QL.51\",\"surface\"=>\"asphalt\"" }, "geometry": { "type": "LineString", "coordinates": [ [ 106.9756808, 10.7423672 ], [ 106.9770813, 10.7406301 ] ] } },
{ "type": "Feature", "properties": { "osm_id": "1409430360", "name": "Quốc lộ 51", "highway": "trunk", "waterway": null, "aerialway": null, "barrier": null, "man_made": null, "railway": null, "z_order": 8, "other_tags": "\"destination\"=>\"TP. Vũng Tàu\",\"int_ref\"=>\"AH17\",\"lanes\"=>\"4\",\"lit\"=>\"yes\",\"maxspeed\"=>\"70\",\"name:en\"=>\"National Route 51\",\"name:vi\"=>\"Quốc lộ 51\",\"oneway\"=>\"yes\",\"ref\"=>\"QL.51\",\"sidewalk\"=>\"right\",\"sidewalk:right:surface\"=>\"concrete\",\"surface\"=>\"asphalt\",\"wikidata\"=>\"Q2380377\",\"wikipedia\"=>\"vi:Quốc lộ 51\"" }, "geometry": { "type": "LineString", "coordinates": [ [ 106.9770813, 10.7406301 ], [ 106.9779527, 10.7395493 ], [ 106.9780998, 10.7393669 ] ] } },
{ "type": "Feature", "properties": { "osm_id": "1409430362", "name": "Quốc lộ 51", "highway": "trunk", "waterway": null, "aerialway": null, "barrier": null, "man_made": null, "railway": null, "z_order": 8, "other_tags": "\"destination\"=>\"TP. Vũng Tàu\",\"int_ref\"=>\"AH17\",\"lanes\"=>\"4\",\"lit\"=>\"yes\",\"maxspeed\"=>\"90\",\"maxspeed:motorcycle\"=>\"70\",\"name:en\"=>\"National Route 51\",\"name:vi\"=>\"Quốc lộ 51\",\"oneway\"=>\"yes\",\"ref\"=>\"QL.51\",\"sidewalk\"=>\"right\",\"sidewalk:right:surface\"=>\"concrete\",\"surface\"=>\"asphalt\",\"wikidata\"=>\"Q2380377\",\"wikipedia\"=>\"vi:Quốc lộ 51\"" }, "geometry": { "type": "LineString", "coordinates": [ [ 106.9813285, 10.7354975 ], [ 106.9813911, 10.735431 ], [ 106.9817047, 10.735135 ], [ 106.9818294, 10.7350312 ], [ 106.9828759, 10.7341594 ], [ 106.983052, 10.7340321 ], [ 106.9837149, 10.7335528 ] ] } },
{ "type": "Feature", "properties": { "osm_id": "1409430363", "name": "Quốc lộ 51", "highway": "trunk", "waterway": null, "aerialway": null, "barrier": null, "man_made": null, "railway": null, "z_order": 8, "other_tags": "\"int_ref\"=>\"AH17\",\"lanes\"=>\"4\",\"lit\"=>\"yes\",\"maxspeed\"=>\"50\",\"name:en\"=>\"National Route 51\",\"name:vi\"=>\"Quốc lộ 51\",\"oneway\"=>\"yes\",\"ref\"=>\"QL.51\",\"sidewalk\"=>\"right\",\"sidewalk:right:surface\"=>\"concrete\",\"surface\"=>\"asphalt\",\"wikidata\"=>\"Q2380377\",\"wikipedia\"=>\"vi:Quốc lộ 51\"" }, "geometry": { "type": "LineString", "coordinates": [ [ 106.9817966, 10.7353332 ], [ 106.9815366, 10.7355752 ], [ 106.9811201, 10.7360184 ], [ 106.9807778, 10.736429 ], [ 106.9793013, 10.7382271 ] ] } },
{ "type": "Feature", "properties": { "osm_id": "1409430364", "name": "Quốc lộ 51", "highway": "trunk", "waterway": null, "aerialway": null, "barrier": null, "man_made": null, "railway": null, "z_order": 8, "other_tags": "\"int_ref\"=>\"AH17\",\"lanes\"=>\"4\",\"maxspeed\"=>\"90\",\"maxspeed:motorcycle\"=>\"70\",\"oneway\"=>\"yes\",\"ref\"=>\"QL.51\",\"surface\"=>\"asphalt\"" }, "geometry": { "type": "LineString", "coordinates": [ [ 106.9793013, 10.7382271 ], [ 106.9790632, 10.738517 ], [ 106.9786903, 10.7389712 ], [ 106.97826, 10.7394952 ] ] } },
{ "type": "Feature", "properties": { "osm_id": "1409430371", "name": "Quốc lộ 51", "highway": "trunk", "waterway": null, "aerialway": null, "barrier": null, "man_made": null, "railway": null, "z_order": 8, "other_tags": "\"int_ref\"=>\"AH17\",\"lanes\"=>\"4\",\"lit\"=>\"yes\",\"maxspeed\"=>\"70\",\"name:en\"=>\"National Route 51\",\"name:vi\"=>\"Quốc lộ 51\",\"oneway\"=>\"yes\",\"ref\"=>\"QL.51\",\"sidewalk\"=>\"right\",\"sidewalk:right:surface\"=>\"concrete\",\"surface\"=>\"asphalt\",\"wikidata\"=>\"Q2380377\",\"wikipedia\"=>\"vi:Quốc lộ 51\"" }, "geometry": { "type": "LineString", "coordinates": [ [ 106.9829403, 10.7343718 ], [ 106.98184, 10.7352886 ], [ 106.9817966, 10.7353332 ] ] } },
{ "type": "Feature", "properties": { "osm_id": "1409448595", "name": "Quốc lộ 51", "highway": "trunk", "waterway": null, "aerialway": null, "barrier": null, "man_made": null, "railway": null, "z_order": 8, "other_tags": "\"int_ref\"=>\"AH17\",\"lanes\"=>\"4\",\"lit\"=>\"yes\",\"maxspeed\"=>\"70\",\"name:en\"=>\"National Route 51\",\"name:vi\"=>\"Quốc lộ 51\",\"oneway\"=>\"yes\",\"ref\"=>\"QL.51\",\"sidewalk\"=>\"right\",\"sidewalk:right:surface\"=>\"concrete\",\"surface\"=>\"asphalt\",\"wikidata\"=>\"Q2380377\",\"wikipedia\"=>\"vi:Quốc lộ 51\"" }, "geometry": { "type": "LineString", "coordinates": [ [ 106.9947461, 10.7264493 ], [ 106.9953558, 10.7257597 ], [ 106.9956835, 10.725389 ] ] } },
{ "type": "Feature", "properties": { "osm_id": "1409448596", "name": "Quốc lộ 51", "highway": "trunk", "waterway": null, "aerialway": null, "barrier": null, "man_made": null, "railway": null, "z_order": 8, "other_tags": "\"int_ref\"=>\"AH17\",\"lanes\"=>\"4\",\"lit\"=>\"yes\",\"maxspeed\"=>\"90\",\"maxspeed:motorcycle\"=>\"70\",\"name:en\"=>\"National Route 51\",\"name:vi\"=>\"Quốc lộ 51\",\"oneway\"=>\"yes\",\"ref\"=>\"QL.51\",\"sidewalk\"=>\"right\",\"sidewalk:right:surface\"=>\"concrete\",\"surface\"=>\"asphalt\",\"wikidata\"=>\"Q2380377\",\"wikipedia\"=>\"vi:Quốc lộ 51\"" }, "geometry": { "type": "LineString", "coordinates": [ [ 106.9980411, 10.7221183 ], [ 106.9982165, 10.7217791 ], [ 106.9984445, 10.7212665 ], [ 106.9986755, 10.7207473 ] ] } },
{ "type": "Feature", "properties": { "osm_id": "1409448597", "name": "Quốc lộ 51", "highway": "trunk", "waterway": null, "aerialway": null, "barrier": null, "man_made": null, "railway": null, "z_order": 8, "other_tags": "\"int_ref\"=>\"AH17\",\"lanes\"=>\"4\",\"lit\"=>\"yes\",\"maxspeed\"=>\"90\",\"maxspeed:motorcycle\"=>\"70\",\"name:en\"=>\"National Route 51\",\"name:vi\"=>\"Quốc lộ 51\",\"oneway\"=>\"yes\",\"ref\"=>\"QL.51\",\"sidewalk\"=>\"right\",\"sidewalk:right:surface\"=>\"concrete\",\"surface\"=>\"asphalt\",\"wikidata\"=>\"Q2380377\",\"wikipedia\"=>\"vi:Quốc lộ 51\"" }, "geometry": { "type": "LineString", "coordinates": [ [ 106.9987932, 10.7204727 ], [ 106.9989337, 10.7201451 ], [ 106.9990337, 10.7199116 ], [ 106.9993254, 10.7192646 ], [ 106.9996573, 10.7186962 ], [ 106.9997892, 10.7185116 ], [ 107.000043, 10.7181622 ], [ 107.000715, 10.7173767 ], [ 107.0008172, 10.7172573 ], [ 107.0014914, 10.7164645 ], [ 107.0018506, 10.716002 ], [ 107.0020887, 10.7156955 ], [ 107.0027963, 10.7146838 ], [ 107.0029684, 10.7144341 ], [ 107.0034277, 10.7137676 ] ] } },
{ "type": "Feature", "properties": { "osm_id": "1409455174", "name": "Quốc lộ 51", "highway": "trunk", "waterway": null, "aerialway": null, "barrier": null, "man_made": null, "railway": null, "z_order": 8, "other_tags": "\"int_ref\"=>\"AH17\",\"lanes\"=>\"4\",\"lit\"=>\"yes\",\"maxspeed\"=>\"90\",\"maxspeed:motorcycle\"=>\"70\",\"name:en\"=>\"National Route 51\",\"name:vi\"=>\"Quốc lộ 51\",\"oneway\"=>\"yes\",\"ref\"=>\"QL.51\",\"sidewalk\"=>\"right\",\"sidewalk:right:surface\"=>\"concrete\",\"surface\"=>\"asphalt\",\"wikidata\"=>\"Q2380377\",\"wikipedia\"=>\"vi:Quốc lộ 51\"" }, "geometry": { "type": "LineString", "coordinates": [ [ 106.9992548, 10.7199213 ], [ 106.9992164, 10.7200065 ], [ 106.9989786, 10.7205614 ] ] } },
{ "type": "Feature", "properties": { "osm_id": "1409455176", "name": "Quốc lộ 51", "highway": "trunk", "waterway": null, "aerialway": null, "barrier": null, "man_made": null, "railway": null, "z_order": 8, "other_tags": "\"int_ref\"=>\"AH17\",\"lanes\"=>\"4\",\"lit\"=>\"yes\",\"maxspeed\"=>\"90\",\"maxspeed:motorcycle\"=>\"70\",\"name:en\"=>\"National Route 51\",\"name:vi\"=>\"Quốc lộ 51\",\"oneway\"=>\"yes\",\"ref\"=>\"QL.51\",\"sidewalk\"=>\"right\",\"sidewalk:right:surface\"=>\"concrete\",\"surface\"=>\"asphalt\",\"wikidata\"=>\"Q2380377\",\"wikipedia\"=>\"vi:Quốc lộ 51\"" }, "geometry": { "type": "LineString", "coordinates": [ [ 106.9963113, 10.7249692 ], [ 106.9958372, 10.7255247 ], [ 106.9949515, 10.7265266 ] ] } },
{ "type": "Feature", "properties": { "osm_id": "1414907066", "name": "Đường cao tốc Biên Hòa – Vũng Tàu", "highway": "motorway", "waterway": null, "aerialway": null, "barrier": null, "man_made": null, "railway": null, "z_order": 9, "other_tags": "\"access\"=>\"yes\",\"bicycle\"=>\"no\",\"foot\"=>\"no\",\"horse\"=>\"no\",\"lanes\"=>\"3\",\"maxspeed\"=>\"80\",\"minspeed\"=>\"60\",\"motor_vehicle:conditional\"=>\"no @ (passenger_seats > 8)\",\"name:en\"=>\"Bien Hoa - Vung Tau Expressway\",\"oneway\"=>\"yes\",\"ref\"=>\"CT.01;CT.28\",\"surface\"=>\"asphalt\"" }, "geometry": { "type": "LineString", "coordinates": [ [ 106.9740757, 10.7632113 ], [ 106.9748618, 10.7620323 ] ] } },
{ "type": "Feature", "properties": { "osm_id": "1414907067", "name": "Cầu Bưng Môn", "highway": "motorway", "waterway": null, "aerialway": null, "barrier": null, "man_made": null, "railway": null, "z_order": 39, "other_tags": "\"access\"=>\"yes\",\"bicycle\"=>\"no\",\"bridge\"=>\"yes\",\"foot\"=>\"no\",\"horse\"=>\"no\",\"lanes\"=>\"3\",\"layer\"=>\"2\",\"maxspeed\"=>\"80\",\"minspeed\"=>\"60\",\"motor_vehicle:conditional\"=>\"no @ (passenger_seats > 8)\",\"name:en\"=>\"Bung Mon Bridge\",\"oneway\"=>\"yes\",\"ref\"=>\"CT.01;CT.28\",\"surface\"=>\"asphalt\"" }, "geometry": { "type": "LineString", "coordinates": [ [ 106.9737413, 10.7637129 ], [ 106.9740757, 10.7632113 ] ] } },
{ "type": "Feature", "properties": { "osm_id": "1414907068", "name": "Đường cao tốc Biên Hòa – Vũng Tàu", "highway": "motorway", "waterway": null, "aerialway": null, "barrier": null, "man_made": null, "railway": null, "z_order": 9, "other_tags": "\"access\"=>\"yes\",\"bicycle\"=>\"no\",\"foot\"=>\"no\",\"horse\"=>\"no\",\"lanes\"=>\"3\",\"maxspeed\"=>\"100\",\"minspeed\"=>\"60\",\"motor_vehicle:conditional\"=>\"no @ (passenger_seats > 8)\",\"name:en\"=>\"Bien Hoa - Vung Tau Expressway\",\"oneway\"=>\"yes\",\"ref\"=>\"CT.28\",\"surface\"=>\"asphalt\"" }, "geometry": { "type": "LineString", "coordinates": [ [ 106.976078, 10.7606215 ], [ 106.9742462, 10.763334 ] ] } },
{ "type": "Feature", "properties": { "osm_id": "1414907069", "name": "Cầu Bưng Môn", "highway": "motorway", "waterway": null, "aerialway": null, "barrier": null, "man_made": null, "railway": null, "z_order": 39, "other_tags": "\"access\"=>\"yes\",\"bicycle\"=>\"no\",\"bridge\"=>\"yes\",\"foot\"=>\"no\",\"horse\"=>\"no\",\"lanes\"=>\"3\",\"layer\"=>\"2\",\"maxspeed\"=>\"80\",\"minspeed\"=>\"60\",\"motor_vehicle:conditional\"=>\"no @ (passenger_seats > 8)\",\"name:en\"=>\"Bung Mon Bridge\",\"oneway\"=>\"yes\",\"ref\"=>\"CT.28\",\"surface\"=>\"asphalt\"" }, "geometry": { "type": "LineString", "coordinates": [ [ 106.9742462, 10.763334 ], [ 106.9739165, 10.7638285 ] ] } },
{ "type": "Feature", "properties": { "osm_id": "1414907087", "name": "Đường cao tốc Biên Hòa – Vũng Tàu", "highway": "motorway", "waterway": null, "aerialway": null, "barrier": null, "man_made": null, "railway": null, "z_order": 9, "other_tags": "\"lanes\"=>\"3\",\"maxspeed\"=>\"80\",\"minspeed\"=>\"80\",\"motor_vehicle:conditional\"=>\"no @ (passenger_seats > 8)\",\"motorcycle\"=>\"no\",\"name:en\"=>\"Bien Hoa - Vung Tau Expressway\",\"oneway\"=>\"yes\",\"ref\"=>\"CT.01;CT.28\",\"surface\"=>\"asphalt\",\"wikidata\"=>\"Q24957174\",\"wikipedia\"=>\"vi:Đường cao tốc Biên Hòa – Vũng Tàu\"" }, "geometry": { "type": "LineString", "coordinates": [ [ 106.9917056, 10.7387845 ], [ 106.9927847, 10.737417 ] ] } },
{ "type": "Feature", "properties": { "osm_id": "1414907095", "name": "Quốc lộ 51", "highway": "trunk", "waterway": null, "aerialway": null, "barrier": null, "man_made": null, "railway": null, "z_order": 8, "other_tags": "\"destination\"=>\"TP. Vũng Tàu\",\"int_ref\"=>\"AH17\",\"lanes\"=>\"4\",\"lit\"=>\"yes\",\"maxspeed\"=>\"50\",\"name:en\"=>\"National Route 51\",\"name:vi\"=>\"Quốc lộ 51\",\"oneway\"=>\"yes\",\"ref\"=>\"QL.51\",\"sidewalk\"=>\"right\",\"sidewalk:right:surface\"=>\"concrete\",\"surface\"=>\"asphalt\",\"wikidata\"=>\"Q2380377\",\"wikipedia\"=>\"vi:Quốc lộ 51\"" }, "geometry": { "type": "LineString", "coordinates": [ [ 106.9805768, 10.7363504 ], [ 106.9806195, 10.7362984 ], [ 106.9809619, 10.7358878 ], [ 106.9813285, 10.7354975 ] ] } },
{ "type": "Feature", "properties": { "osm_id": "1414907096", "name": "Quốc lộ 51", "highway": "trunk", "waterway": null, "aerialway": null, "barrier": null, "man_made": null, "railway": null, "z_order": 8, "other_tags": "\"destination\"=>\"TP. Vũng Tàu\",\"int_ref\"=>\"AH17\",\"lanes\"=>\"4\",\"lit\"=>\"yes\",\"maxspeed\"=>\"50\",\"name:en\"=>\"National Route 51\",\"name:vi\"=>\"Quốc lộ 51\",\"oneway\"=>\"yes\",\"ref\"=>\"QL.51\",\"sidewalk\"=>\"right\",\"sidewalk:right:surface\"=>\"concrete\",\"surface\"=>\"asphalt\",\"wikidata\"=>\"Q2380377\",\"wikipedia\"=>\"vi:Quốc lộ 51\"" }, "geometry": { "type": "LineString", "coordinates": [ [ 106.9801388, 10.7368838 ], [ 106.9805768, 10.7363504 ] ] } },
{ "type": "Feature", "properties": { "osm_id": "1454954291", "name": "Đường cao tốc Biên Hòa – Vũng Tàu", "highway": "motorway", "waterway": null, "aerialway": null, "barrier": null, "man_made": null, "railway": null, "z_order": 9, "other_tags": "\"lanes\"=>\"3\",\"maxspeed\"=>\"80\",\"minspeed\"=>\"80\",\"motor_vehicle:conditional\"=>\"no @ (passenger_seats > 8)\",\"motorcycle\"=>\"no\",\"name:en\"=>\"Bien Hoa - Vung Tau Expressway\",\"oneway\"=>\"yes\",\"ref\"=>\"CT.01;CT.28\",\"surface\"=>\"asphalt\"" }, "geometry": { "type": "LineString", "coordinates": [ [ 106.9927847, 10.737417 ], [ 106.9978486, 10.7311073 ], [ 106.999334, 10.7291787 ], [ 107.0021698, 10.7254967 ], [ 107.0028779, 10.7246323 ], [ 107.0035645, 10.7237468 ], [ 107.0041813, 10.7229204 ] ] } },
{ "type": "Feature", "properties": { "osm_id": "1454954292", "name": "Đường cao tốc Biên Hòa – Vũng Tàu", "highway": "motorway", "waterway": null, "aerialway": null, "barrier": null, "man_made": null, "railway": null, "z_order": 9, "other_tags": "\"lanes\"=>\"3\",\"maxspeed\"=>\"80\",\"minspeed\"=>\"80\",\"motor_vehicle:conditional\"=>\"no @ (passenger_seats > 8)\",\"motorcycle\"=>\"no\",\"name:en\"=>\"Bien Hoa - Vung Tau Expressway\",\"oneway\"=>\"yes\",\"ref\"=>\"CT.01;CT.28\",\"surface\"=>\"asphalt\"" }, "geometry": { "type": "LineString", "coordinates": [ [ 107.0043295, 10.7230037 ], [ 107.0037026, 10.7238353 ], [ 107.0030082, 10.7247419 ], [ 107.0023064, 10.7255983 ], [ 106.9994624, 10.7293284 ], [ 106.9980235, 10.7312155 ], [ 106.9930082, 10.7375848 ] ] } },
{ "type": "Feature", "properties": { "osm_id": "1454954293", "name": "Cầu Suối Cả", "highway": "motorway", "waterway": null, "aerialway": null, "barrier": null, "man_made": null, "railway": null, "z_order": 39, "other_tags": "\"bridge\"=>\"yes\",\"lanes\"=>\"2\",\"layer\"=>\"2\",\"maxspeed\"=>\"80\",\"minspeed\"=>\"80\",\"motor_vehicle:conditional\"=>\"no @ (passenger_seats > 8)\",\"motorcycle\"=>\"no\",\"name:en\"=>\"Suoi Ca Bridge\",\"oneway\"=>\"yes\",\"ref\"=>\"CT.01;CT.28\",\"surface\"=>\"asphalt\"" }, "geometry": { "type": "LineString", "coordinates": [ [ 107.0041813, 10.7229204 ], [ 107.0042726, 10.7227981 ], [ 107.0048892, 10.721926 ] ] } },
{ "type": "Feature", "properties": { "osm_id": "1454954294", "name": "Cầu Suối Cả", "highway": "motorway", "waterway": null, "aerialway": null, "barrier": null, "man_made": null, "railway": null, "z_order": 39, "other_tags": "\"bridge\"=>\"yes\",\"lanes\"=>\"2\",\"layer\"=>\"2\",\"maxspeed\"=>\"80\",\"minspeed\"=>\"80\",\"motor_vehicle:conditional\"=>\"no @ (passenger_seats > 8)\",\"motorcycle\"=>\"no\",\"name:en\"=>\"Suoi Ca Bridge\",\"oneway\"=>\"yes\",\"ref\"=>\"CT.01;CT.28\",\"surface\"=>\"asphalt\"" }, "geometry": { "type": "LineString", "coordinates": [ [ 107.0050156, 10.7220405 ], [ 107.0044108, 10.7228959 ], [ 107.0043295, 10.7230037 ] ] } },
{ "type": "Feature", "properties": { "osm_id": "1457401083", "name": "Cầu vượt Nút giao Long Thành", "highway": "motorway", "waterway": null, "aerialway": null, "barrier": null, "man_made": null, "railway": null, "z_order": 39, "other_tags": "\"bridge\"=>\"yes\",\"bridge:name\"=>\"Cầu vượt Nút giao Long Thành\",\"bridge:name:en\"=>\"Long Thanh Intersection Overpass\",\"lanes\"=>\"3\",\"layer\"=>\"2\",\"maxspeed\"=>\"60\",\"name:en\"=>\"Long Thanh Intersection Overpass\",\"oneway\"=>\"yes\",\"ref\"=>\"CT.29\",\"surface\"=>\"asphalt\",\"toll\"=>\"yes\",\"wikidata\"=>\"Q16479982\",\"wikipedia\"=>\"vi:Đường cao tốc Thành phố Hồ Chí Minh – Long Thành – Dầu Giây\"" }, "geometry": { "type": "LineString", "coordinates": [ [ 106.9706124, 10.7669041 ], [ 106.9697715, 10.7667379 ] ] } },
{ "type": "Feature", "properties": { "osm_id": "1457702268", "name": "Cầu vượt Nút giao Long Thành", "highway": "motorway", "waterway": null, "aerialway": null, "barrier": null, "man_made": null, "railway": null, "z_order": 39, "other_tags": "\"bridge\"=>\"yes\",\"bridge:name\"=>\"Cầu vượt Nút giao Long Thành\",\"bridge:name:en\"=>\"Long Thanh Intersection Overpass\",\"lanes\"=>\"2\",\"layer\"=>\"2\",\"maxspeed\"=>\"60\",\"name:en\"=>\"Long Thanh Intersection Overpass\",\"oneway\"=>\"yes\",\"ref\"=>\"CT.29\",\"surface\"=>\"asphalt\",\"toll\"=>\"yes\",\"wikidata\"=>\"Q16479982\",\"wikipedia\"=>\"vi:Đường cao tốc Thành phố Hồ Chí Minh – Long Thành – Dầu Giây\"" }, "geometry": { "type": "LineString", "coordinates": [ [ 106.9697199, 10.7663282 ], [ 106.9699344, 10.7663733 ], [ 106.9701688, 10.7664218 ], [ 106.9716036, 10.766719 ] ] } },
{ "type": "Feature", "properties": { "osm_id": "1467098343", "name": "Đường cao tốc Thành phố Hồ Chí Minh – Long Thành – Dầu Giây", "highway": "motorway", "waterway": null, "aerialway": null, "barrier": null, "man_made": null, "railway": null, "z_order": 9, "other_tags": "\"bicycle\"=>\"no\",\"foot\"=>\"no\",\"horse\"=>\"no\",\"int_ref\"=>\"AH1\",\"lanes\"=>\"2\",\"maxspeed\"=>\"60\",\"motor_vehicle\"=>\"yes\",\"motorcycle\"=>\"no\",\"name:en\"=>\"Ho Chi Minh City - Long Thanh - Dau Giay Expressway\",\"name:ja\"=>\"ホーチミン - ダウザイ高速道路\",\"name:vi\"=>\"Đường cao tốc Thành phố Hồ Chí Minh – Long Thành – Dầu Giây\",\"name:zh\"=>\"胡志明市-隆城-油移高速公路\",\"oneway\"=>\"yes\",\"ref\"=>\"CT.01;CT.29\",\"surface\"=>\"asphalt\",\"toll\"=>\"yes\",\"wikidata\"=>\"Q16479982\",\"wikipedia\"=>\"vi:Đường cao tốc Thành phố Hồ Chí Minh – Long Thành – Dầu Giây\"" }, "geometry": { "type": "LineString", "coordinates": [ [ 106.9787674, 10.7685231 ], [ 106.9760458, 10.7680618 ] ] } },
{ "type": "Feature", "properties": { "osm_id": "1526902476", "name": "Đường cao tốc Thành phố Hồ Chí Minh – Long Thành – Dầu Giây", "highway": "motorway", "waterway": null, "aerialway": null, "barrier": null, "man_made": null, "railway": null, "z_order": 9, "other_tags": "\"bicycle\"=>\"no\",\"foot\"=>\"no\",\"horse\"=>\"no\",\"int_ref\"=>\"AH1\",\"lanes\"=>\"2\",\"maxspeed\"=>\"60\",\"motor_vehicle\"=>\"yes\",\"motorcycle\"=>\"no\",\"name:en\"=>\"Ho Chi Minh City - Long Thanh - Dau Giay Expressway\",\"name:ja\"=>\"ホーチミン - ダウザイ高速道路\",\"name:vi\"=>\"Đường cao tốc Thành phố Hồ Chí Minh – Long Thành – Dầu Giây\",\"name:zh\"=>\"胡志明市-隆城-油移高速公路\",\"oneway\"=>\"yes\",\"ref\"=>\"CT.01;CT.29\",\"surface\"=>\"asphalt\",\"toll\"=>\"yes\",\"wikidata\"=>\"Q16479982\",\"wikipedia\"=>\"vi:Đường cao tốc Thành phố Hồ Chí Minh – Long Thành – Dầu Giây\"" }, "geometry": { "type": "LineString", "coordinates": [ [ 106.9761321, 10.7676566 ], [ 106.9773825, 10.7679802 ], [ 106.9788172, 10.7683515 ], [ 106.9788437, 10.7683584 ] ] } },
{ "type": "Feature", "properties": { "osm_id": "1527420151", "name": "Đường tỉnh 769", "highway": "primary", "waterway": null, "aerialway": null, "barrier": null, "man_made": null, "railway": null, "z_order": 7, "other_tags": "\"lanes\"=>\"4\",\"maxspeed\"=>\"50\",\"ref\"=>\"ĐT.769\",\"surface\"=>\"asphalt\"" }, "geometry": { "type": "LineString", "coordinates": [ [ 106.9570437, 10.7826379 ], [ 106.9572036, 10.7827164 ], [ 106.9580697, 10.7831291 ], [ 106.9582542, 10.7832263 ], [ 106.9584589, 10.7833495 ], [ 106.9585507, 10.7834327 ], [ 106.9586895, 10.7835883 ], [ 106.9589009, 10.7838555 ], [ 106.9592128, 10.7842825 ], [ 106.9594376, 10.7845857 ], [ 106.9594706, 10.7846303 ], [ 106.9595301, 10.7847106 ], [ 106.9595594, 10.7847501 ], [ 106.9596389, 10.7848542 ], [ 106.9600147, 10.7853725 ], [ 106.960327, 10.7858003 ], [ 106.9605993, 10.7861733 ], [ 106.9606302, 10.7861931 ], [ 106.9609552, 10.7866687 ], [ 106.9611609, 10.7869553 ], [ 106.9612295, 10.7870509 ], [ 106.9612908, 10.787124 ], [ 106.9617299, 10.7877195 ], [ 106.9617694, 10.787772 ], [ 106.961883, 10.7879288 ], [ 106.9620516, 10.7881615 ], [ 106.9622393, 10.7884205 ], [ 106.9622599, 10.7884489 ], [ 106.9624611, 10.7887267 ], [ 106.9627058, 10.7890485 ], [ 106.9634414, 10.7900158 ], [ 106.9636824, 10.7903327 ], [ 106.9638392, 10.7905389 ], [ 106.9641149, 10.7908899 ], [ 106.9642404, 10.79105 ], [ 106.9645065, 10.7913894 ], [ 106.964539, 10.7914313 ], [ 106.9646388, 10.7915595 ], [ 106.9647048, 10.7916444 ], [ 106.9648385, 10.7918163 ], [ 106.9648781, 10.7918672 ], [ 106.964951, 10.791961 ], [ 106.9649727, 10.7919889 ], [ 106.9650481, 10.7920858 ], [ 106.9650733, 10.7921183 ], [ 106.9651027, 10.7921561 ], [ 106.9651639, 10.7922348 ], [ 106.9651868, 10.792253 ], [ 106.9653276, 10.7923645 ], [ 106.9655652, 10.7925527 ], [ 106.9658486, 10.7927213 ], [ 106.9661205, 10.7928687 ], [ 106.9668571, 10.7932802 ], [ 106.9674684, 10.7938471 ], [ 106.9675566, 10.7939199 ], [ 106.9685582, 10.7949334 ], [ 106.9691065, 10.7953827 ], [ 106.9696929, 10.7958895 ], [ 106.9702126, 10.7963198 ], [ 106.9703978, 10.7964731 ], [ 106.9707585, 10.7967639 ], [ 106.9711022, 10.7970056 ], [ 106.9711795, 10.7970444 ], [ 106.9714855, 10.7971635 ], [ 106.9715225, 10.7971779 ], [ 106.9715729, 10.797194 ], [ 106.9722064, 10.7973499 ], [ 106.9724332, 10.7973973 ], [ 106.9729361, 10.7975481 ], [ 106.9729819, 10.7975556 ], [ 106.9734633, 10.7976775 ], [ 106.9735739, 10.7977022 ], [ 106.9740688, 10.7978126 ], [ 106.9743163, 10.7978555 ], [ 106.9744379, 10.7978697 ], [ 106.9755406, 10.7979992 ], [ 106.9758305, 10.7980337 ], [ 106.975927, 10.7980449 ], [ 106.9763539, 10.798094 ], [ 106.9779648, 10.7982848 ], [ 106.9781477, 10.7983046 ], [ 106.9789938, 10.7983998 ], [ 106.9791038, 10.7984092 ], [ 106.9792194, 10.7984176 ], [ 106.9793191, 10.7984219 ], [ 106.97942, 10.7984221 ], [ 106.9795228, 10.7984157 ], [ 106.9796169, 10.7984064 ], [ 106.9797155, 10.7983916 ], [ 106.979841, 10.7983631 ], [ 106.9802439, 10.7982747 ], [ 106.9803713, 10.7982456 ], [ 106.9811668, 10.7980621 ], [ 106.9819116, 10.7978953 ] ] } },
{ "type": "Feature", "properties": { "osm_id": "1527420152", "name": "Đường tỉnh 769", "highway": "primary", "waterway": null, "aerialway": null, "barrier": null, "man_made": null, "railway": null, "z_order": 7, "other_tags": "\"lanes\"=>\"4\",\"maxspeed\"=>\"70\",\"ref\"=>\"ĐT.769\",\"surface\"=>\"asphalt\"" }, "geometry": { "type": "LineString", "coordinates": [ [ 106.9819116, 10.7978953 ], [ 106.9823931, 10.7977947 ], [ 106.9906909, 10.7959372 ] ] } },
{ "type": "Feature", "properties": { "osm_id": "1527420153", "name": "Đường tỉnh 769", "highway": "primary", "waterway": null, "aerialway": null, "barrier": null, "man_made": null, "railway": null, "z_order": 7, "other_tags": "\"lanes\"=>\"4\",\"maxspeed\"=>\"50\",\"ref\"=>\"ĐT.769\",\"surface\"=>\"asphalt\"" }, "geometry": { "type": "LineString", "coordinates": [ [ 106.9906909, 10.7959372 ], [ 106.990787, 10.7959169 ], [ 106.9909026, 10.7958945 ], [ 106.9910106, 10.7958743 ], [ 106.991118, 10.7958577 ], [ 106.9912186, 10.795846 ], [ 106.991333, 10.7958367 ], [ 106.9914483, 10.7958301 ], [ 106.9915573, 10.7958298 ] ] } },
{ "type": "Feature", "properties": { "osm_id": "1527420154", "name": "Đường tỉnh 769", "highway": "primary", "waterway": null, "aerialway": null, "barrier": null, "man_made": null, "railway": null, "z_order": 7, "other_tags": "\"lanes\"=>\"4\",\"maxspeed\"=>\"50\",\"ref\"=>\"ĐT.769\",\"surface\"=>\"asphalt\"" }, "geometry": { "type": "LineString", "coordinates": [ [ 107.0096461, 10.7949623 ], [ 107.0100806, 10.7948671 ], [ 107.0102974, 10.7948187 ], [ 107.0103858, 10.794799 ], [ 107.0110114, 10.7946593 ], [ 107.0111549, 10.7946307 ], [ 107.0113944, 10.7945737 ], [ 107.0115172, 10.7945466 ], [ 107.0116532, 10.7945184 ], [ 107.0118494, 10.7944571 ], [ 107.0120726, 10.7943282 ], [ 107.0122384, 10.7941958 ], [ 107.0122725, 10.7941668 ], [ 107.0128197, 10.7936818 ], [ 107.0130117, 10.7935541 ], [ 107.0132016, 10.7934567 ] ] } }
]
}
